client_code,client_label,label_type,address,zip_code,city,Longitude,latitude,radius
15200,ARMEMENT JEAN RENET,Client,47 RUE DE REVILLE,50550,ST VAAST LA HOUGUE,,,80
3039,KP1,Client,USINE DE ROTS,14653,CARPIQUET CEDEX,,,80
3916,TRANSPORTS GODFROY,Client,BP 80170,14652,CARPIQUET CEDEX,,,80
7786,PROXILOG,Client,SITE ROTS,14653,CARPIQUET,,,80
13513,NORMANDIE MENUISERIES,Client,213/217 RUE DE L AVENIR,14650,CARPIQUET,,,80
3218,THIBAUT,Client,AVENUE DE BISCHWILLER,14500,VIRE,,,80
11265,SCLV,Client,RUE DES ALBATROS,14520,PORT EN BESSIN HUPPAIN,,,80
4848,CARPIQUET PALETTES,Client,Z.I. OUEST,14650,CARPIQUET,,,80
11595,POMONA EPISAVEURS,Client,TPTS CHEZ TRANSPORT MALHE,14980,ROTS,,,80
3746,CHAPUZET GUY,Client,LIEU DIT LES HEUDINIERES,50420,ST VIGOR DES MONTS,,,80
13160,AGRIAL - CESNY BOIS HALBOUT,Client,RUE DE LA POSTE,14220,CESNY BOIS HALBOUT,,,80
14727,DOVILLE,Client,12 RUE DES FORQUES,14760,BRETTEVILLE SUR ODON,,,80
6258,GESTION INFORMATIQUE DES,Client,STOCKS,14110,CONDE SUR NOIREAU,,,80
4721,BROCHAGE 14 DIFFUSION,Client,ZAC DE LA GRANDE PLAINE,14760,BRETTEVILLE SUR ODON,,,80
13168,DISTRICO ESSON,Client,ROUTE DE FALAISE,14220,ESSON,,,80
9032,AE2 DEVELOPPEMENT,Client,31 BLD DE LA PAIX,14200,HEROUVILLE ST CLAIR,,,80
3100,DECOLLETAGE DE BASSE NDIE,Client,Z.I. RUE D AUDRIEU,14400,BAYEUX,,,80
3322,NOUET DEMENAGEMENTS,Client,Z.I. DE LA PLAINE,14760,BRETTEVILLE SUR ODON,,,80
3490,INSTITUT LEMONNIER,Client,B.P. 269,14013,CAEN CEDEX,,,80
9115,ARD CLOSMENIL,Client,CHEMIN DE LA ROUTIERE,14310,TRACY BOCAGE,,,80
15558,LES EPIS D OR,Client,15 ROUTE DE FONTAINE,14930,MALTOT,,,80
15534,CYDINE,Client,19 ROUTE DE VIRE,14110,CONDE EN NORMANDIE,,,80
6096,GARAGE MALHERBE,Client,SERVICE GARAGE,14653,CARPIQUET CEDEX,,,80
13464,NCR,Client,55 RUE DE LA LIBERTE,14730,GIBERVILLE,,,80
5480,CONSEIL GENERAL DU CALVADOS,Client,SCE MAINTENANCE DU,14650,CARPIQUET,,,80
14312,FERME DU MESNIL,Client,LE VIEUX BOIS,14330,LE MOLAY LITTRY,,,80
4206,LYCEE A. DE CAUMONT,Client,RUE BARON GERARD,14402,BAYEUX CEDEX,,,80
13635,ELISABETH COURSES,Client,170 AV DU PARC,14790,VERSON,,,80
14136,MALUSO,Client,170 AVENUE DU PARC,14790,VERSON,,,80
8374,CONSEIL DEPARTEMENTAL,Client,DU CALVADOS,14035,CAEN CEDEX 1,,,80
6704,KEOLIS CAEN MOBILITES,Client,"15, RUE DE GEOLE",14053,CAEN CEDEX,,,80
13196,AGRIAL - ST MARTIN DES BESACES,Client,ROUTE DE CAEN,14350,SOULEUVRE EN BOCAGE,,,80
13933,HUCHET FRERES,Client,HAMEAU VERAILLER,14250,JUAYE MONDAYE,,,80
14396,LECONTE ISOLATION,Client,ZA DU GRAND PRE,14500,VIRE NORMANDIE,,,80
10580,PATRIX CUISINES,Client,LA CROIX DES LANDES,14240,TORTEVAL QUESNAY,,,80
14350,NOLLET CAEN,Client,NOLLET,14200,HEROUVILLE ST CLAIR,,,80
12620,STENACA II,Client,RUE DE COLOMBIERS,14480,STE CROIX SUR MER,,,80
14637,DUMONT BRILLAUD,Client,ZAC DE LA GRANDE PLAINE,14760,BRETTEVILLE SUR ODON,,,80
15099,SCTE NOUVELLE JEANNE MAREYAGE,Client,CENTRE DE MAREYAGE,14520,PORT EN BESSIN HUPPAIN,,,80
13158,AGRIAL - CAUMONT L EVENTE,Client,ROUTE DE TORIGNI,14240,CAUMONT L EVENTE,,,80
14962,REVIVAL MAGNY LES HAMEAUX,Client,33 RUE GENEVIEVE AUBE,78114,MAGNY LES HAMEAUX,,,80
14987,DISTRITEC,Client,20 RUE DE LA RETARDAIS,35000,RENNES,,,80
4961,GDE ROCQUANCOURT,Client,ROUTE DE LORGUICHON,14540,CASTINE EN PLAINE,,,80
3052,CIMENTS CALCIA,Client,USINE DE RANVILLE,14860,RANVILLE,,,80
13153,AGRIAL - BEAUMAIS,Client,LA CROIX,14620,BEAUMAIS,,,80
7793,LA POSTE MONDEVILLE,Client,CTC 140820,14120,MONDEVILLE,,,80
4142,DS DISTRIBUTION,Client,ZONE D ACTIVITE,14370,MOULT,,,80
6208,ATSI,Client,418 RUE AUGUSTIN RIFFAULT,14540,SOLIERS,,,80
4590,MAIRIE DE MONDEVILLE,Client,HOTEL DE VILLE,14126,MONDEVILLE CEDEX,,,80
5946,LES JARDINERIES DU SALEVE,Client,PBA BOTANIC BAVENT,14860,BAVENT,,,80
5789,THEATRE MUNICIPAL DE LA,Client,VILLE DE CAEN,14007,CAEN CEDEX 01,,,80
6660,BREAVOINE MICHEL,Client,DOMAINE DU LIEU GOSSEL,14130,COUDRAY RABUT,,,80
14722,DMV BOTANIC DEMOUVILLE,Client,LES JARDINERIES DU SALEVE,14840,DEMOUVILLE,,,80
12066,FMBE,Client,CARREFOUR SAINT JAMES,14290,ST CYR DU RONCERAY,,,80
7674,TATLI,Client,ZAC DE LAZZARO,14460,COLOMBELLES,,,80
11950,EUROMASTER,Client,ERM 4LB VI,14540,CAEN SUD,,,80
14094,ETN,Client,BP80,14126,MONDEVILLE,,,80
11798,U EXPRESS,Client,101 RUE DU GENERAL DE GAU,14160,DIVES SUR MER,,,80
13862,D ANGOVILLE,Client,MANOIR D ANGOVILLE,14430,CRICQUEVILLE EN AUGE,,,80
4313,CONSEIL REGIONAL DE,Client,NORMANDIE,14035,CAEN CEDEX,,,80
4573,MEDILIS LABORATOIRES,Client,RUE DES FRERES LUMIERES,14104,LISIEUX CEDEX,,,80
3912,LEGALLAIS,Client,BD DU LTN CNL OSTIGUY,14320,ST ANDRE SUR ORNE,,,80
6268,CAEN BATTERIES,Client,Planet Eco Mobility,14840,DEMOUVILLE,,,80
14953,REVIVAL BLAINVILLE,Client,RUE DE LA MER,14550,BLAINVILLE SUR ORNE,,,80
14195,ARC EN CIEL PROPRETE,Client,24 RUE GEORGES MAUDUIT,14120,MONDEVILLE,,,80
8848,STEPELEC,Client,ZA DE LAZARRO,14460,COLOMBELLES,,,80
14746,DECATHLON,Client,PA DE LA GALOTERIE,14100,LISIEUX,,,80
8742,LAURENT SERVICES,Client,ZI DU MARTRAY,14730,GIBERVILLE,,,80
13190,DISTRICO - PONT L EVEQUE,Client,ROUTE DE ROUEN,14130,PONT L EVEQUE,,,80
10125,TEXCELIS *,Client,ZI NORD EST,14102,LISIEUX CEDEX,,,80
8180,CAEN DISTRIBUTION,Client,CENTRE LECLERC,14000,CAEN,,,80
15522,TOMPLUS,Client,Avenue Ox et bucks,14800,ST ARNOULT,,,80
13135,LEADER PRICE,Client,RUE JACQUES DULOS,14550,BLAINVILLE SUR ORNE,,,80
12307,GIFI,Client,LIEU DIT LE FER DES CHAMP,14160,PERIERS EN AUGE,,,80
11688,LBM,Client,33 RUE FOURNET,14100,LISIEUX,,,80
7011,GIFI,Client,AVENUE DE LA COTE DE NACR,14000,CAEN,,,80
13166,DISTRICO - DRUBEC,Client,L EGLISE,14130,DRUBEC,,,80
12253,GIFI MAG,Client,RUE AUGUSTIN FRESNEL,14100,LISIEUX,,,80
13625,SAINT JOSEPH,Client,7 RUE DU POIRIER,14540,SOLIERS,,,80
12173,GIFI,Client,ROUTE DE FALAISE,14123,IFS,,,80
3370,LES ROUTIERS NORMANDS,Client,"7,RUE DES FRERES CHAPPE",14540,GRENTHEVILLE,,,80
14960,REVIVAL LIMAY 2,Client,AVENUE DANIEL DREYFUS DUC,78520,LIMAY,,,80
5901,LEROLOC,Client,SERVICE POLE TIERS,14653,CARPIQUET CEDEX,,,80
12727,AXALTA COATING SYS FRANCE,Client,1 ALLEE CHANTEREINE,78711,MANTES LA VILLE,,,80
11273,AB SERVE,Client,USINE PAUL DURLACH,14550,BLAINVILLE SUR ORNE,,,80
1791,BURONOMIC,Client,B.P. 143,14603,HONFLEUR CEDEX,,,80
1732,LIAMETHO,Client,ZI,14601,HONFLEUR CEDEX,,,80
14929,AFM LE MANS,Client,49 AVENUE PIERRE PIFFAULT,72000,LE MANS,,,80
14967,AFM CESSON SEVIGNE,Client,21 RUE DE BRAY,35510,CESSON SEVIGNE,,,80
14961,REVIVAL LIMAY 2,Client,1430 RUE DREYFUS DUCAS,78520,LIMAY,,,80
14965,REVIVAL VERNOUILLET,Client,ZI DE NUISEMENT,28500,VERNOUILLET,,,80
14926,AFM FOUGERES,Client,ZI DE LA GUENAUDIERE,35300,FOUGERES,,,80
14956,REVIVAL CORBIE,Client,RUE HENRI BARBUSSE,80800,CORBIE,,,80
14745,CHEVILLE 35,Client,ZAC ACTIPOLE,35540,MINIAC MORVAN,,,80
11338,EURALIS NORMANDIE,Client,BP 40264,14653,CARPIQUET CEDEX,,,80
12445,MALHERBE TPS,Client,BP 40264,14653,CARPIQUET CEDEX,,,80
14264,MAIRIE DEAUVILLE,Client,20 RUE ROBERT FOSSORCIER,14801,DEAUVILLE CEDEX,,,80
12706,LES JARDINS DE LOUVIGNY,Client,ZAC DU LONG COURS,14111,LOUVIGNY,,,80
14995,CHASLE MENUISERIE,Client,ROUTE DE CAUMONT,14250,FONTENAY LE PESNEL,,,80
14636,Armement GLAKEV,Client,11 RUE DU SUROIT,14450,GRANDCAMP MAISY,,,80
13075,MALHERBE BRETAGNE,Client,BP 40264,14653,CARPIQUET CEDEX,,,80
11423,LEON L ENSEIGNISTE,Client,ZAC DE LA VALLEE BARREY,14120,MONDEVILLE,,,80
10234,HOTEL NORMANDY BARRIERE,Client,5 BIS RUE HOCHE,14804,DEAUVILLE,,,80
15286,REFERENCE SOL,Client,RUE DU COMMERCE,14730,GIBERVILLE,,,80
14255,PISCINES DU PAYS D AUGE,Client,LIEU ALLAIS,14130,CLARBEC,,,80
11590,DELICECOOK,Client,15 RUE JACQUES DAGUERRE,14120,MONDEVILLE,,,80
15107,CASE,Client,17 AVENUE D HARCOURT,14123,FLEURY SUR ORNE,,,80
15541,ECO LOGIS ENERGIE,Client,611 RUE PAUL BOUCHEROT,14123,IFS,,,80
13725,NICOLAS & NICOLAS,Client,5 RUE DE LA RESISTANCE,14400,BAYEUX,,,80
12251,AE2 DEVELOPPEMENT,Client,31 BLD DE LA PAIX,14200,HEROUVILLE ST CLAIR,,,80
15203,GLOBALTECH,Client,ZONE ARTISANALE LES HOGUE,14400,VAUCELLES,,,80
13566,FEDEX EXPRESS FR,Client,RUE BREHOLLES,14540,SOLIERS,,,80
12609,FERME POTIRON ET COMPAGNIE,Client,N�9 VAL,14220,THURY HARCOURT LE HOM,,,80
11583,ATELIER DU BISCUIT,Client,SF2S,14940,SANNERVILLE,,,80
14258,FRAIKIN FRANCE,Client,Rue Fr�res Chapp�,14540,GRENTHEVILLE,,,80
15581,PP CAGNY MATERIAUX,Client,1 RUE DE L ETOILE,14630,CAGNY,,,80
15133,REXEL CAEN,Client,N� CODA 1401,14000,CAEN,,,80
11285,SIGNAUX GIROD NORD OUEST,Client,8 RUE DES METIERS,14123,CORMELLES LE ROYAL,,,80
13722,AC SOLS & MURS,Client,2 RUE DU LONG DOUET,14760,BRETTEVILLE SUR ODON,,,80
14175,PIERRE MARIE ET SAS ARMEMNT NO,Client,12 RUE DU GRAND VAL,14520,AURE ET MER,,,80
12672,SCIE CREL SA,Client,5 RUE DE LA VIGNE,14650,CARPIQUET,,,80
10323,4 MURS,Client,RUE HENRI SPRIET,14120,MONDEVILLE,,,80
13467,ACTEMIUM,Client,51 BOULEVARD ANTOINE BECQ,14123,IFS,,,80
11927,AGRILEADER,Client,ZA DES PLANQUETTES,14330,LE MOLAY LITTRY,,,80
13354,MONROCQ,Client,ZA RUE HENRI SPRIET,14120,MONDEVILLE,,,80
5794,PGS BERY,Client,10 ROUTE DU MANS,72530,YVRE L EVEQUE,,,80
15257,AXLAUR,Client,ZA DE LA TANNEBRUNE,27380,CHARLEVAL,,,80
112,BOULANGEOT PVC,Client,1870 RUE DE LA LIBERATION,27610,ROMILLY SUR ANDELLE,,,80
12885,MSP,Client,5 SENTE DES JARDINS DU LE,27610,ROMILLY SUR ANDELLE,,,80
12400,PETISNEAU,Client,"11, RUE DE LA BRIGANTINE",27940,VENABLES,,,80
4487,ECT2S,Client,ZA DE LA VICOMTE,27400,HEUDEBOUVILLE,,,80
8600,BAUER,Client,21 CHEMIN DU MOULIN FOULO,27490,FONTAINE HEUDEBOURG,,,80
15596,MECA INOX,Client,1 RUE DE LA CROIX DES MAH,95000,CERGY,,,80
11147,ECHO VERT IDF,Client,RUE DE TRAVERSIERE,95650,PUISEUX PONTOISE,,,80
10921,AMPHASTAR FRANCE,Client,PHARMACEUTICALS,60590,ERAGNY SUR EPTE,,,80
14055,VISTA TECHNOLOGIES,Client,3 AVENUE DES PRES,78180,MONTIGNY LE BRETONNEUX,,,80
471,PIPELIFE FRANCE,Client,SECTEUR  F,27600,GAILLON,,,80
1008,CARPENTER ENGINEERED FOAMS,Client,CF 16700000,27406,LOUVIERS,,,80
8791,VESTALIA VEOLIA,Client,TECHNOCENTRE RENAULT AUBE,27940,AUBEVOYE,,,80
1586,PIPELIFE FRANCE,Client,Z.I. SECTEUR E,27940,AUBEVOYE,,,80
1532,TERRE DE LIN,Client,STE COOPER. AGRICOLE,27350,ROUTOT,,,80
8429,3877 GISORS POINT P,Client,22 ROUTE DE DIEPPE,27140,GISORS,,,80
11378,3843 BOURG ACHARD POINT P,Client,RUE SAINT EXUPERY,27310,BOURG-ACHARD,,,80
6127,MAIRIE DES ANDELYS,Client,SERVICES TECHNIQUES,27700,LES ANDELYS,,,80
6432,SAINTHIMAT,Client,RUE DES JONCS MARINS,27600,GAILLON,,,80
12518,LE BRONZE ALLOYS,Client,Lieu-Dit Le Croix aux Lie,27720,DANGU,,,80
11396,3895 LOUVIERS POINT P,Client,53 AV WINSTON CHURCHILL,27400,LOUVIERS,,,80
1735,DGA TECHNIQUES Hydrodynamique,Client,CHAUSSEE DU VEXIN,27100,VAL DE REUIL,,,80
13005,SUPER U CLEMENCE II,Client,24 RUE DE LYONS,27460,IGOVILLE,,,80
3561,PRO STEEL,Client,ZI DE LA PORTE ROUGE,27150,ETREPAGNY,,,80
10902,LUNEL NEGOCE,Client,ZI 2 ROUTE DE DELINCOURT,27140,GISORS,,,80
13826,FALK FRANCE,Client,2 RUE CAILLEMARE,27310,LA TRINITE DE THOUBERVILL,,,80
13506,DUHAMEL LOGISTIQUE,Client,SITE 1,27690,LERY,,,80
8542,MVR MATERIAUX BIGMAT,Client,VOIE DES CLOUETS,27100,VAL DE REUIL,,,80
10431,ATL LOGISTIQUE,Client,Rue de la Ceramique,27940,AUBEVOYE,,,80
12319,TRANSPORTS BRANGEON,Client,SITE DE SGPAM,27310,BOURG ACHARD,,,80
13508,DUHAMEL LOGISTIQUE,Client,SITE 4,27100,VAL DE REUIL,,,80
12195,CMT NOVAT,Client,ZAC LA MARE BATAILLE,27370,LE THUIT SIGNOL,,,80
14528,ARDOIS EURE,Client,23A RUE ANTHIME FERRANDIE,27340,PONT DE L ARCHE,,,80
12709,ASSYSTEM CHEZ RENAULT AUBEVOYE,Client,PARC DE GAILLON,27940,AUBEVOYE,,,80
13137,BOSMY CLOTURE NORMACLO,Client,"39 , ROUTE HERQUEVILLE",27590,PITRES,,,80
5025,GDE NORMANDIE,Client,CHAUSSEE DU VEXIN,27400,LOUVIERS,,,80
13094,OUEST ISOL PFD,Client,CODE AGENCE WADMAG,27460,ALIZAY,,,80
11377,3841 AUBEVOYE POINTP,Client,RUE DE LA CERAMIQUE,27940,AUBEVOYE,,,80
10544,ALTV,Client,ZA DE LA MAISON ROUGE,27800,BOSROBERT,,,80
11318,ENTREPOT PIB,Client,VOIE DE L INSTITUT,27100,VAL-DE-REUIL,,,80
12678,BOUCLET,Client,"26 ,rue de la Grande Mare",27380,GRAINVILLE,,,80
12134,NORMANDIE LAVAGE ALIMENTAIRE,Client,All�e du Sous Maill�,27400,HEUDEBOUVILLE,,,80
10959,CASH LIGHTING,Client,9 RUE DE L INDUSTRIE,27430,MUIDS,,,80
14504,GROUPE IDFN,Client,VOIES DES COUTURES,27100,VAL DE REUIL,,,80
372,DYNAFOND,Client,Z.I. DE LA PORTE ROUGE,27150,ETREPAGNY,,,80
11593,FRANCE MOUILLAGE OFFSET - FMO,Client,ZAC DE QUINCANGROGNE,27310,BOURG ACHARD,,,80
13097,OUEST ISOL EXPORT,Client,CODE AGENCE W23MAG,27460,ALIZAY,,,80
12145,XPO TRANSPORTS SOLUTIONS,Client,Chez ITM LAI HEUDEBOUVILL,27400,HEUDEBOUVILLE,,,80
12631,RK FRANCE,Client,1 RUE DU DR PAUL BOBAY,27400,ACQUIGNY,,,80
11145,SEBEMEX AGENCE ROUEN,Client,CODE ORGANISATION : SE890,27460,ALIZAY,,,80
9796,MIC  MENUISERIE ISOLATION,Client,CLOISON,27670,BOSC ROGER EN ROUMOIS,,,80
11461,FARRTHOM,Client,GARAGE ROADY,27140,GISORS,,,80
11341,AYONIS,Client,RUE DU PORT,27400,LOUVIERS,,,80
50,AUCHAN SUPERMARCHE SAS,Client,MAGASIN VAL DE REUIL,27100,VAL DE REUIL,,,80
11040,ESPACE LOC,Client,ZI DE LA PORTE ROUGE,27150,ETREPAGNY,,,80
12738,LOGISTIQUE SERVICES,Client,34 GRANDE RUE,27430,ST PIERRE DU VAUVRAY,,,80
15561,ABYSSE CORP,Client,506 RUE DU NEUBOURG,27520,GRAND BOURGTHEROULDE,,,80
14657,ROUMOIS SABLAGE,Client,LIEU DIT LE PETIT NOEL,27310,LA TRINITE DE THOUBERVILL,,,80
12521,PERFORMANCE MX,Client,ZAC VERGERS DE QUINCANGRO,27310,BOURG ACHARD,,,80
8482,ID VERDE,Client,PARC D ACTIVITE DES COUTU,27100,VAL DE REUIL,,,80
14499,ETILABEL,Client,PARC D ACTIVITES DU CAVE,27100,VAL DE REUIL,,,80
14799,GIPELEC,Client,45 / 47 VOIE DES COUTURES,27100,VAL DE REUIL,,,80
14765,LECLERC AUTO,Client,RUE DES PRES,27400,LOUVIERS,,,80
8952,DUHAMEL LOGISTIQUE,Client,VOIE DE L INSTITUT,27100,VAL DE REUIL,,,80
11997,AXL CONSTRUCTIONS,Client,14 PLACE CAILLEMARE,27310,ST OUEN DE THOUBERVILLE,,,80
9925,PICOURT CABIS,Client,39 ROUTE D HERQUEVILLE -,27104,VAL DE REUIL CEDEX,,,80
9834,KIT METAL,Client,3 RTE D EVREUX,27600,GAILLON,,,80
12937,FLUXTENDU,Client,VOIE BARBEURRE,27100,VAL DE REUIL,,,80
15612,TRADE PEINTURE,Client,16 RUE CAPITAINE NEMO,80440,BOVES,,,80
8946,SETOM DE L EURE,Client,VC6 LIEU DIT ST LAURENT,27930,GUICHAINVILLE,,,80
13082,EVERGREEN GARDEN CARE FRANCE,Client,USINE DU FOURNEAU,27580,BOURTH,,,80
1719,GROUPE PIERRE HENRY,Client,B.P. 20,27430,HERQUEVILLE,,,80
8029,TRANSPORTS BAZIRET,Client,BP 3123,27031,EVREUX CEDEX,,,80
7775,REGROUP EURE,Client,CS 20715,27007,EVREUX CEDEX,,,80
1158,SDPP,Client,PARC D ACTIVITE DE LA FOR,27000,EVREUX,,,80
501,GMCM,Client,"26, AV.DE L ILE DE FRANCE",27200,VERNON,,,80
10684,LEGOUEZ,Client,BP 13,27110,MARBEUF,,,80
8832,OWEN MUMFORD,Client,BP 3333,27950,ST MARCEL,,,80
10713,COMPAGNIE NORMANDE DE CLOTURES,Client,ZAC DU LONG BUISSON,27000,EVREUX,,,80
833,NORMACHATS INGENIERIE,Client,7 VOIE DE L ARTISANAT,27170,NASSANDRES SUR RISLE,,,80
86,TRANSPORTS BAZIRET,Client,BP 3123,27031,EVREUX CEDEX,,,80
274,COPHYDIS,Client,"12, PLACE DU MAL LECLERC",27110,LE NEUBOURG,,,80
14694,POINT CARRELAGE,Client,CENTRE COMMERCIALDU CAP C,27930,NORMANVILLE,,,80
7787,STENGEL,Client,LES GRES,27320,COURDEMANCHE,,,80
8035,MP REA,Client,273 CHEMIN DU PARC,27180,LE PLESSIS GROHAN,,,80
804,TRELLEBORG SEALING SOLUTIONS,Client,PLYMOUTH,27120,PACY SUR EURE,,,80
12285,MECALYNOX,Client,13 RUE ROLETTE,27190,PORTES,,,80
6510,ERM,Client,RUE CHARLES CROS,27400,LOUVIERS,,,80
6491,LINIERE DU RESSAULT,Client,ETS LAMERANT,27110,LE NEUBOURG,,,80
15279,PACK TPG BIO,Client,1 RUE DE L ESCADRON DES C,27120,DOUAINS,,,80
11384,3857 CONCHES POINT P,Client,RUE PIERRE BEREGOVOY,27190,CONCHES-EN-OUCHE,,,80
4734,STOL,Client,ZAC DU LONG BUISSON,27930,GUICHAINVILLE,,,80
2008,LESENS ELECTRICITE,Client,Z.I. N� 1 - RUE COCHEREL,27017,EVREUX CEDEX,,,80
15198,BATI FRANCE 27,Client,RUE DE LA BARONNERIE,27400,HEUDREVILLE SUR EURE,,,80
2881,BATIRAMA,Client,"17, RUE DE LOUVIERS",27190,BUREY,,,80
3713,BIOCER,Client,FERME DE GROHAN,27180,LE PLESSIS GROHAN,,,80
5939,DOLLEANS SERVICE,Client,23 RUE DE LA BERGERIE,27600,GAILLON,,,80
15550,LIBRAIRIE PAPETERIE DU MANOIR,Client,140 RUE DE LA SEMAILLE,27300,BERNAY,,,80
4280,KLUK,Client,"15,RUE DE LA MARE LOMBAIE",27016,EVREUX CEDEX,,,80
9914,ALMA MATER,Client,140 PA DE LA SEMAILLE,27300,BERNAY,,,80
8637,KING JOUET,Client,ZA LA GARENNE DE MELLEVIL,27930,GUICHAINVILLE,,,80
12143,LEADER PRICE,Client,7 RUE DE LA FOULERIE,27170,BEAUMONT LE ROGER,,,80
8428,3846 BERNAY POINT P,Client,BOULEVARD SYLLA LEFEVRE,27300,BERNAY,,,80
9168,MECACHIMEX,Client,8 - 10 rue des Bruy�res,27220,BOIS LE ROI,,,80
12148,GIFI,Client,RUE DES CHAUMES,27950,ST MARCEL,,,80
6207,LA RENAISSANCE SANITAIRE,Client,HOPITAL LA MUSSE,27180,ST SEBASTIEN DE MORSENT,,,80
15500,JL DISTRI,Client,4 RUE JEAN JAURES,27000,EVREUX,,,80
15456,OLLAGNIER,Client,250 RUE NUNGESSER ET COLI,27930,GUICHAINVILLE,,,80
6512,DE PAEPE CHAUDRONNERIE,Client,ZAC DES BOURDINES,27200,VERNON,,,80
5065,CHIELVR,Client,"2, RUE SAINT JEAN",27400,LOUVIERS,,,80
10992,VILLE D EVREUX PATRIMOINE ET,Client,CONSTRUCTION ATELIER MUNI,27001,EVREUX CEDEX,,,80
15289,SAINT ETIENNE,Client,IMPASSE LA BATAILLE,27350,ETREVILLE,,,80
6872,COMBLES D EN FRANCE,Client,LA CROIX CRESPIN,27800,ST PIERRE DE SALERNE,,,80
7754,TRANSPORTS GOBLOT MAX,Client,RTE DE BERNAY,27500,ST GERMAIN VILLAGE,,,80
8944,SNVC,Client,TOUTAINVILLE,27502,PONT-AUDEMER,,,80
12281,ALFYMA JEAN MIRMONT,Client,Chemin de la Sablonniere,27600,FONTAINE BELLENGER,,,80
12068,MAIRIE BEUZEVILLE,Client,Albert Sorel,27210,BEUZEVILLE,,,80
12632,FRECHON,Client,5 RUE ANDRE MORIN,27260,EPAIGNES,,,80
15167,AGRI ENERGIE,Client,IMPASSE DE LA BATAILLE,27350,ETREVILLE,,,80
13511,MANUTRANS,Client,HAM DE VALLEVILLE,27800,BRIONNE,,,80
13992,PONTAUDIS U EXPRESS,Client,PLACE DU GENERAL DE GAULL,27500,PONT AUDEMER,,,80
10605,LECAPITAINE SA,Client,206 ZONE ARTISANALE DU TR,27260,EPAIGNES,,,80
15244,TRANSPORTS DELAUNAY,Client,19 RUE LES LIVRAINDIERES,28100,DREUX,,,80
13838,LA FORET DES HETRES,Client,2 RUE DE LA COULINIERE,27100,LE VAUDREUIL,,,80
14578,INITIAL SAS EIM653,Client,7 RUE DES BARBANCONS,27930,GRAVIGNY,,,80
10322,NORDFILM,Client,13 RUE DE LA BRASSERIE,27500,PONT AUDEMER,,,80
10972,BOULANGEOT BOIS ET PVC,Client,172 GRANDE RUE,27360,PONT ST PIERRE,,,80
9013,L ADAPT NORMANDIE,Client,POLE COMPABLE 27,27300,BERNAY,,,80
13867,LEADER PRICE,Client,MAGASIN 4979,27780,GARENNES SUR EURE,,,80
13045,DISTRICLOS,Client,15 RUE HENRY FORMAN,27930,GUICHAINVILLE,,,80
13221,U LOGISTIQUE,Client,ENTREPOT DE BEUZEVILLE,27210,BEUZEVILLE,,,80
10046,DMAX,Client,RTE DE FRESNE,27190,CONCHES EN OUCHE,,,80
14872,ACMV PRODUCTION,Client,ZONE INDUSTRIELLE,27130,VERNEUIL SUR AVRE,,,80
7279,FERME DES NOES,Client,RUE DES NOES,27600,ST AUBIN SUR GAILLON,,,80
9640,PN ELECTRONICS,Client,PARC AFFAIRE DES PORTES,27100,VAL DE REUIL,,,80
12324,BATIMENT CFA EVREUX,Client,1006 RUE JACQUARD,27035,EVREUX CEDEX,,,80
12317,ENCI,Client,8 rue du Parc,27930,MISEREY,,,80
10126,NORSILK,Client,45 RUE DE LA BRUYERE,27210,BOULLEVILLE,,,80
14885,T2AE,Client,"1, rue Forgere",27100,LE VAUDREUIL,,,80
11339,THIERRY BUISSON,Client,4RUE M BELLENCONTRE,27950,LA HEUNIERE,,,80
15642,FRANS BONHOMME,Client,RUE DE LA MECANIQUE,27400,LOUVIERS,,,80
10458,ENTREPRISE JULLIEN,Client,LA SEIGNERIE RN13,27120,PACY SUR EURE,,,80
12689,AGRISOLUTION,Client,ZA la Vente Cartier,27380,CHARLEVAL,,,80
13388,DE LA CROIX SAINT JACQUES,Client,Les Harangeries,27320,LA MADELEINE DE NONANCOUR,,,80
12714,SEFI,Client,P.A DE LA FORET,27000,EVREUX,,,80
14336,LA CEREALERIE,Client,2 RUE MATREAUX,27110,GRAVERON SEMERVILLE,,,80
14653,AEROGOMMAGE NORMANDIE,Client,ZI,27130,VERNEUIL D AVRE ET D ITON,,,80
9511,OGON DESIGNS,Client,RUE ALBERTO SANTOS DUMONT,27930,GUICHAINVILLE,,,80
10807,SOLUTION JARDIN,Client,20 ROUTE DE ROUEN,27310,TRINITE DE THOUBERVILLE,,,80
7507,SIOREM,Client,4 RUE GUSTAVE EIFFEL,27930,GRAVIGNY,,,80
14348,NOLLET EVREUX,Client,29 RUE JACQUARD,27000,EVREUX,,,80
12967,EMPREINTE,Client,L ESSART CLEMENT,27220,LA BOISSIERE,,,80
14923,NS CONCEPT,Client,130 RUE CLEMENT ADER - PA,27000,EVREUX,,,80
10626,TOBLY,Client,CENTRE E.LECLERC,27930,CAER NORMANVILLE,,,80
13128,GIFI,Client,13 LE LONG BUISSON,27930,GUICHAINVILLE,,,80
11296,BAUER,Client,24 RUE DES BARBANCONS,27930,GRAVIGNY,,,80
10625,TOBLY,Client,442 RUE DU LUXEMBOURG,27000,EVREUX,,,80
8594,COMALDIS,Client,7 BIS BLD DE L INDUSTRIE,28500,VERNOUILLET,,,80
11386,3866 DREUX VERNOUILLET BPE,Client,POINT P,28500,VERNOUILLET,,,80
11797,LEADER PRICE,Client,CCIAL BEAUVOIR,28200,CHATEAUDUN,,,80
8432,3865 DREUX POINT P,Client,25 RUE ETHE VIRTON,28100,DREUX,,,80
12861,LECLUSE AUTOMOBILES DREUX,Client,4 AVENUE DES BATES,28100,DREUX,,,80
10620,PGS CENTRE,Client,RN 154 LIEU-DIT LES PETIT,28310,SANTILLY,,,80
14595,ORANGE DATA CENTER AMILLY,Client,5 RUE DU COMMANDANT CHARC,28300,AMILLY,,,80
14349,NOLLET DREUX,Client,RUE DES LIVRAINDIERES,28100,DREUX,,,80
7520,AUX DEMENAGEMENTS DELAUNAY,Client,ZI DES CHATELETS,28100,DREUX,,,80
15322,VRVH,Client,ROUTES DES SAINS,80440,BOVES,,,80
15154,LA POSTE,Client,BRANCHE SERVICES COURRIER,35651,LE RHEU CEDEX,,,80
15389,AFM RECYCLAGE - RENNES,Client,34 RUE DU MANOIR SERVIGNE,35000,RENNES,,,80
15193,STG ROUEN,Client,ZA NOYAL SUD 1,35530,NOYAL SUR VILAINE,,,80
12200,FABHESTIA,Client,LA ROUGERIE,35680,LOUVIGNE DE BAIS,,,80
11150,POMONA TERRE AZUR,Client,LA CROIX RIDOUEL,35538,NOYAL SUR VILAINE CEDEX,,,80
15278,BERTO OUEST,Client,ZI LA GIRAUDIERE,35530,NOYAL SUR VILAINE,,,80
14238,GLOBAL LOCATION,Client,Chez VP TRANSPORTS,50160,TORIGNY LES VILLES,,,80
3074,CHEREAU JEAN,Client,FACTURES FOURNISSEURS,35768,ST GREGOIRE CEDEX,,,80
14582,A.A.C GLOBE EXPRESS,Client,150 RUE DE LA BELLE ETOIL,95700,ROISSY EN FRANCE,,,80
3326,OTECMI,Client,TSA 36915,95939,ROISSY CHARLE DE GAULLE,,,80
14250,FABHESTIA INDUSTRIES,Client,LA ROUGERIE,35680,LOUVIGNE DE BAIS,,,80
3133,INTERNATIONAL PAPER ST AMAND,Client,SAINT AMAND,50160,TORIGNI SUR VIRE,,,80
9984,NEXT METAL,Client,ZA LA ROUTE,50540,ISIGNY LE BUAT,,,80
8656,ALLIANCE OCEANE,Client,ZI DE BLACTOT,50951,ST LO CEDEX,,,80
11185,LEROY MERLIN,Client,19 ZA CLAUDE CHAPPE,50470,TOLLEVAST,,,80
3057,ATLANTIQUE PACKAGING COTENTIN,Client,Z.I. DE LA CANURIE,50250,LA HAYE DU PUITS,,,80
3216,GOSSELIN,Client,"25, ROUTE DU BOURG",50760,STE GENEVIEVE,,,80
3206,MAITRES LAITIERS,Client,BP 102,50280,SOTTEVAST,,,80
5308,CHEREAU SERVICES,Client,LE DOMAINE,50220,DUCEY,,,80
11408,3940 AVRANCHES POINT P,Client,LES PRES DU PONT,50300,LE VAL ST PERE,,,80
3167,SAINT ANDRE PLASTIQUE,Client,"5, IMPASSE BALLEROY",50680,ST ANDRE DE L EPINE,,,80
14382,DISTRICO -VILLEDIEU LES POELES,Client,ROUFFIGNY FR,50800,VILLEDIEU LES POELES ROUF,,,80
3174,MONDELEZ FRANCE BISCUIT PROD,Client,GRANVILLE PRODUCTION,50402,GRANVILLE CEDEX,,,80
3307,LECAPITAINE INDUSTRIE,Client,PARC ACTIVITES NEPTUNE I,50009,ST LO CEDEX,,,80
3355,LABAT MERLE *,Client,RTE DE ST HILAIRE ROMAGNY,50140,MORTAIN,,,80
13052,COOP LES CELLIERS ASSOCIES,Client,CIDRERIE DUJARDIN,50890,CONDE SUR VIRE,,,80
7104,KERMAREE,Client,ZAC,50560,BLAINVILLE SUR MER,,,80
3360,GRANVIDIS DISTRIBUTION,Client,CENTRE LECLERC,50400,GRANVILLE,,,80
3127,ETP,Client,"60, RUE DE LA LIBERTE",50300,AVRANCHES,,,80
3239,LABORATOIRE UNITHER,Client,Z.I. DE LA GUERIE,50211,COUTANCES,,,80
12452,CETIH FENETRES RONCEY,Client,21 LA HUTIERE-BP 6,50210,RONCEY,,,80
14089,PLATE-FORME AGRIAL,Client,AVENUE GASTON LESERVOISIE,50370,BRECEY,,,80
11402,3907 PORTBAIL POINT P,Client,RUE PERE ALBERT,50580,PORTBAIL,,,80
3248,STE FROMAGERE DE STE CECILE,Client,L ARCHERIE,50800,STE CECILE,,,80
4098,PLESSIS A ET G,Client,25 RUE ROBERT LE BIS,50160,ST AMAND,,,80
11383,3853 TOURLAVILLE POINT P,Client,14 RUE BAPTISTE MARCET,50110,TOURLAVILLE,,,80
6724,GUILLOUX MATERIAUX,Client,21 RUE DES ECREHOUS,50380,ST PAIR SUR MER,,,80
14194,FLORENTAISE,Client,54 RUE DU FRESNE,50500,BAUPTE,,,80
10764,AGRILEADER,Client,ZONE DU FLAUQUET,50180,AGNEAUX,,,80
8560,LA MONTFARVILLAISE,Client,0,50760,MONTFARVILLE,,,80
12010,PHILIPPE LASSARAT,Client,TERRE PLEIN DES MIELLES,50110,TOURLAVILLE,,,80
6620,BONNA SABLA,Client,6 RUE GILLES POERIER,50580,PORTBAIL,,,80
3215,GRANVILLE MATERIAUX SEE,Client,1886 ROUTE NATIONALE,50380,ST PAIR SUR MER,,,80
13265,HYDROCHEM,Client,3 RUE DES AUBEPINES,50120,CHERBOURG EN COTENTIN,,,80
14553,ABATTOIR BAIE DU COTENTIN,Client,ROUTE AMERICAINE,50500,MEAUTIS,,,80
3965,LEBOUCHER,Client,2 ROUTE DE LA FIEFFE MARI,50520,JUVIGNY LE TERTRE,,,80
13789,PRIMEVER NORMANDIE,Client,11 ROUTE NEUVE,50160,ST AMAND,,,80
11366,1382 TORIGNI POINT P,Client,13 ROUTE DE ST LO,50160,TORIGNI-SUR-VIRE,,,80
8230,3919 ST LO POINT P,Client,ZI LA CHEVALERIE,50000,ST LO,,,80
12789,AGRILEADER,Client,LA SAYERE,50450,GAVRAY,,,80
14274,PENET,Client,191 RUE DE BREQUECAL,50110,CHERBOURG EN COTENTIN,,,80
14132,TANGUY MATERIAUX DUCEY,Client,RUE GARENNE,50220,DUCEY,,,80
573,SUEZ RV GRAND OUEST METAUX,Client,RUE DU CLOS ROUEN,50190,PERIERS,,,80
13991,PEVILDIS - CENTRE LECLERC,Client,RUE DE LA MARE,50500,CARENTAN LES MARAIS,,,80
3257,SIMON,Client,ATELIER COMPOSITE,50105,CHERBOURG CEDEX,,,80
3165,GRANVILMER,Client,"20, RTE DE L AERODROME",50290,BREVILLE SUR MER,,,80
14090,COPEPORT,Client,QUAI DE L ENTREPOT,50100,CHERBOURG EN COTENTIN,,,80
3591,GOUTIERE,Client,PERSARD,50370,BRECEY,,,80
3714,POMONA CHERBOURG,Client,20 RUE DES CHENES,50110,TOURLAVILLE,,,80
2941,PABEA - BRICOCASH,Client,PARC DE LA BAIE N 2,50300,AVRANCHES,,,80
3200,JARDINERIE LEGRUEL,Client,RN 13,50470,TOLLEVAST,,,80
11380,3848 BRECEY POINT P,Client,ZA LA LUCERIE,50370,BRECEY,,,80
3058,ATLANTIQUE PACKAGING COTENTIN,Client,Z.I. DE LA CANURIE,50250,LA HAYE DU PUITS,,,80
3265,SDA CENTRE LECLERC-,Client,ZI ROUTE D ISIGNY LE BUAT,50300,AVRANCHES,,,80
15281,JARDILAND SAINT LO,Client,MAG 270,50000,ST LO,,,80
11395,3893 LESSAY POINT P,Client,ROUTE DE PERIERS,50430,LESSAY,,,80
3889,MONTEBELLO,Client,"137, RUE DES ARTISANS",50110,TOURLAVILLE,,,80
3418,ESAT CROIX CARREE,Client,580 RUE BARTHELEMY THIMON,50180,AGNEAUX,,,80
8225,3892 LES PIEUX POINT P,Client,ROUTE DE CHERBOURG,50340,LES PIEUX,,,80
1792,BONNA SABLA,Client,RUE GILLES POERIER,50580,PORTBAIL,,,80
7087,LM SERVICES,Client,600 RUE HENRI CLAUDEL,50000,ST LO,,,80
14571,TANGUY MATERIAUX PONTORSON,Client,0,50170,PONTORSON,,,80
14997,FIRST TRANSPORTS AFFRETEMENTS,Client,LOGISTIQUE APTAR 50,50800,VILLEDIEU LES POELES ROUF,,,80
8231,3859 COUTANCES POINT P,Client,4 AVENUE DE VERDUN,50200,COUTANCES,,,80
2426,TRANSPORTS JOURDAN,Client,B.P. 30,50600,ST HILAIRE DU HARCOUET,,,80
5698,FRANCE CROCOS,Client,ZA,50190,PERIERS,,,80
9666,HUITRE MOANA SAINT VAASTAISE,Client,RUE DES PARCS,50550,ST VAAST LA HOUGUE,,,80
4735,SPEN,Client,"4, RUE SAINT PIERRE",50310,MONTEBOURG,,,80
4132,LARIVIERE AGENCE COUTANCES,Client,CODE ORGANISATION : 254,50200,COUTANCES,,,80
14214,CHERBONNEL LOGISTIQUE,Client,3 Route du Mauray Parigny,50600,GRANDPARIGNY,,,80
8912,CNLB,Client,CONDE SUR VIRE,50951,SAINT LO CEDEX,,,80
6326,MOREL,Client,LE MOULIN,50680,VILLIERS FOSSARD,,,80
14123,LES TRAVAILLEURS DE LA MER,Client,23 Route de Cherbourg,50340,LES PIEUX,,,80
6149,EMERGENCE AGRO,Client,Z.I. DES VALLEES,50800,VILLEDIEU LES POELES,,,80
8581,3851 CARENTAN POINT P,Client,ZA DU MINGLIN,50500,CARENTAN,,,80
4343,LES VIVIERS DU CAP,Client,LD LA MARE,50110,TOURLAVILLE,,,80
7207,ESCANOR,Client,RUE LEON JOUHAUX,50000,ST LO,,,80
14298,TANGUY MATERIAUX DISTRIBUTION,Client,PONT DE SEE,50150,SOURDEVAL,,,80
12073,LARIVIERE AGENCE CHERBOURG,Client,CODE ORGANISATION : 02H,50470,LA GLACERIE,,,80
8366,SNAC,Client,ZI POMMENAUQUE,50500,CARENTAN,,,80
11781,PLINTHECO,Client,49 RUE DE LA CROIX AU BRE,50450,HAMBYE,,,80
7683,LES CREATIONS PLANDIERE,Client,38 RTE DE SAINT LO,50420,TESSY SUR VIRE,,,80
561,PAPECO SAS,Client,52 RUE TANGUIERE - ORVAL,50208,COUTANCES CEDEX,,,80
14395,MMP,Client,RUE FEBURON,50600,ST HILAIRE DU HARCOUET,,,80
11757,SARTILLY INDUSTRIES PONTAUBAUL,Client,SITE PONTAUBAULT,50220,PONTAUBAULT,,,80
3391,SURDIVE SAS,Client,26 RUE DE LA BRENOTTERIE,50760,REVILLE,,,80
10460,"LYCEE PROFESSIONNEL DOUCET E,",Client,RUE PAUL DOUMER,50120,EQUEURDREVILLE HAINNEVILL,,,80
10963,MANCHE POMMES DE TERRE,Client,3 RUE DE BARVILLE,50760,MONTFARVILLE,,,80
15260,POINT P PERIERS,Client,ZA de la Mare aux Raines,50190,PERIERS,,,80
14193,ORANGE,Client,UI NORMANDIE CENTRE,50000,ST LO,,,80
8740,GRANVILLE DISTRIBUTION,Client,LA HAUTE LAUDE,50400,YQUELON,,,80
12490,DEPERIERS,Client,35 RUE DU 8 MAI,50570,MARIGNY LE LOZON,,,80
6949,FONDATION BON SAUVEUR,Client,DIRECTION DES AFFAIRES FI,50008,SAINT LO,,,80
13647,TEBA,Client,"43, RUE DE LA VIEILLE RIV",50600,GRANDPARIGNY,,,80
3782,FROMAGERIE REO,Client,"1, RUE PLANQUETTES",50430,LESSAY,,,80
13680,LITTORAL NORMAND,Client,MAISON DE L AGRICULTURE,50000,ST LO,,,80
11376,3765 AGON COUTAINVILLE POINT P,Client,74 AVENUE DU PASSOUS,50230,AGON-COUTAINVILLE,,,80
14877,MAIRIE,Client,Place Charles de Gaulle,50160,TORIGNY LES VILLES,,,80
7942,OGEC INSTITUTION NOTRE DAME,Client,43 RUE SEBLINE,50500,CARENTAN,,,80
3170,SOFRILOG - COUTANCES,Client,CENTRE D ABATTAGE,50200,COUTANCES,,,80
4446,LAUDESCHER,Client,ZI POMMENAUQUE,50500,CARENTAN,,,80
3346,SAINT EMILE,Client,74 Rue du Haut Chemin,50710,CREANCES,,,80
4045,SUEZ RV MNF,Client,ZI DU GRAND CHEMIN,50540,ISIGNY LE BUAT,,,80
12137,MALPLANCHE,Client,ZA - ROUTE DES CAROLLES,50530,SARTILLY,,,80
6042,SARTILLY INDUSTRIES,Client,784 ROUTE DE LA FIEFFE MA,50520,JUVIGNY LE TERTRE,,,80
7647,UNIVER APPRO,Client,LE MOULIN,50680,VILLIERS FOSSARD,,,80
3205,BAISNEE ET HARIVEL SUPER U,Client,0,50370,BRECEY,,,80
14955,REVIVAL BREHAL,Client,ZA LE CLOS DE MARES,50290,BREHAL,,,80
3290,SICAP ELECTRONIQUE,Client,Z.A. DE LA LANDE,50290,COUDEVILLE SUR MER,,,80
7066,SARTILLY INDUSTRIES,Client,784 ROUTE DE LA FIEFFE MA,50520,JUVIGNY LES VALLEES,,,80
3460,LA BERGERIE,Client,MR DOGON JEAN-LOUIS,50580,ST REMY DES LANDES,,,80
9484,SAINTENY MENUISERIES,Client,46 RUE DES FORGES,50500,SAINTENY,,,80
7737,ENSEIGNES FRANCOIS,Client,PARC D ACTIVITES NEPTUNE1,50000,ST LO,,,80
14782,FINEL TIREL,Client,PARC D ACTIVITE RUE DE LA,50470,CHERBOURG EN COTENTIN,,,80
14975,REVIVAL VALOGNES,Client,ZI D ARMANVILLE,50700,YVETOT BOCAGE,,,80
13258,DODEMAN DISTRIBUTION,Client,11 rue du bassin,50600,ST HILAIRE DU HARCOUET,,,80
14058,MABOTAN,Client,1118 AVENUE DE PARIS,50000,ST LO,,,80
9733,DAVIAL INTERMARCHE,Client,RUE DE LA GUINGUETTE,50500,CARENTAN,,,80
7417,ETP SAINT JAMES,Client,ROUTE DE PONTORSON,50240,ST JAMES,,,80
14984,PANIERS TERDIS,Client,ZONE NEPTUNE II,50000,ST LO,,,80
14802,IZABELLE BATIMENT,Client,19 LA JOIGNERIE,50750,QUIBOU,,,80
11080,BRICO ATTITUDE WELDOM,Client,CENTRE COMMERCIAL ODYSSEE,50180,ST GILLES,,,80
14273,PENET,Client,RUE BARTHELEMY THIMONNIER,50180,AGNEAUX,,,80
15410,COUTANDIS LECLERC,Client,ROUTE DE CARENTAN,50200,COUTANCES,,,80
6484,JARDILAND SAS,Client,MAG 1140,50470,CHERBOURG EN COTENTIN,,,80
10148,ACE,Client,7 RUE DES CLAIRES,50460,QUERQUEVILLE,,,80
9820,GIP RESTAURATION COLLECTIVE,Client,CENTRE MANCHE,50000,ST LO,,,80
14038,LEADER PRICE,Client,28 RUE DU GENERAL DE GAUL,50800,VILLEDIEU LES POELES ROUF,,,80
9921,CHERBOURG MAGASIN NOZ,Client,Code Magasin : F450,50120,EQUEURDREVILLE HAINNEVILL,,,80
11246,ASTURIENNE - TOURLAVILLE,Client,1002 RUE JEAN BOUIN,50110,TOURLAVILLE,,,80
14679,ARMEMENT CHERBOURGEOIS,Client,200 RUE DES AJONCS,50110,CHERBOURG EN COTENTIN,,,80
11528,SOUTIFRAIS,Client,81-83 ZA DE CANISY,50750,CANISY,,,80
15280,JARDILAND,Client,PARC DE LA BAIE,50300,AVRANCHES,,,80
3599,MONTCHOIX - INTERMARCHE,Client,LE BOIS JUGAN,50000,ST LO,,,80
10691,CONNIN SYLVIE,Client,1 IMPASSE DES MARES GLATE,50250,LA HAYE,,,80
3260,SOCOBOMA,Client,LA RAOULERIE,50008,ST LO CEDEX,,,80
3366,FRERET YVES ET FILS,Client,TRANSPORTS,50430,LESSAY,,,80
4073,ESAT ANEHP,Client,"28, RUE SAINT JACQUES",50310,MONTEBOURG,,,80
15254,DECATHLON -N�264,Client,240 RUE JOSEPH CUGNOT,50000,ST LO,,,80
13101,EQUEURDREVILLE DISTRIBUTION,Client,60 66 RUE DE LA PAIX,50120,CHERBOURG EN COTENTIN,,,80
14703,L ATELIER PAISANT,Client,14 RUE DE LA GARE,50430,LESSAY,,,80
14107,AGNEAUX DISTRIBUTION,Client,PARC DE L ODYSSEE,50180,AGNEAUX,,,80
10028,ACMGB LAURENT ISOLATION,Client,SAS ACMGB,50290,BREHAL,,,80
15211,MARCELOT DECO,Client,43 ZONE ARTISANALE AUBIGN,50300,PONTS,,,80
7480,FRANS BONHOMME,Client,ZI DE LA CHEVALERIE,50000,ST LO,,,80
14707,DISTRICO - BARNEVILLE CARTERET,Client,RUE DU PONT ROSE,50270,BARNEVILLE CARTERET,,,80
3253,MAREE DU COTENTIN,Client,MARE DES FLAMANDS,50110,TOURLAVILLE,,,80
13847,TUMOINE,Client,LA ROCHE QUI BOIS,50220,DUCEY LES CHERIS,,,80
10471,"LYCEE J, DE LA MORANDIERE",Client,RUE CRETE,50400,GRANVILLE,,,80
13917,DISTRICO - LA HAYE DU PUITS,Client,27 AVENUE COTE DES ISLES,50250,LA HAYE,,,80
14634,BLIN LEMONNIER,Client,ZA CROIX AUX BRETONS,50450,HAMBYE,,,80
11081,BRICOMARCHE BITRAKOU,Client,AVENUE DIVISON LECLERC,50200,COUTANCES,,,80
9907,ESAT JEAN MARAIS,Client,159 RUE DE SAUXMARAIS,50110,TOURLAVILLE,,,80
14457,NUVIA STRUCTURE,Client,ZA LA FOSSE GUILLOTIN,50440,LA HAGUE,,,80
12881,NMC 50,Client,17 ZONE DE LA CHEVALERIE,50570,MARIGNY LE LOZON,,,80
9719,MOBIKY-TECH,Client,ZONE NEPTUNE II,50000,ST LO,,,80
3601,ESAT CONDE SUR VIRE,Client,"17, RUE DU CHEMIN VERT",50890,CONDE SUR VIRE,,,80
3593,LAFOSSE ELECTRICITE,Client,4 ROUTE DE VIRE,50890,CONDE SUR VIRE,,,80
6797,COOP AVITAILLEMENT DE L  EST,Client,COTENTIN,50630,ST VAAST LA HOUGUE,,,80
12841,PALLA HABITAT,Client,5 ZA LA CHENEE,50570,MARIGNY,,,80
13921,DISTRICO - GAVRAY,Client,ZI ROUTE DE COUTANCES,50450,GAVRAY,,,80
8109,LABEL CAVE,Client,239 RUE DENIS PAPIN,50180,AGNEAUX,,,80
12889,CLG DISTRIBUTION,Client,16 RUE LECAMPION,50400,GRANVILLE,,,80
11498,BASE NAVALE CHERBOURG,Client,PORT MILITAIRE GSBDD,50115,CHERBOURG OCTEVILLE CEDEX,,,80
12121,FLAMBARD SEBASTIEN,Client,13 ZA DE LA GALANDERIE,50260,SOTTEVAST,,,80
14586,AUX QUATRE SAISONS,Client,27 RUE MARECHAL FOCH,50100,CHERBOURG EN COTENTIN,,,80
10086,LE CAP WELDOM,Client,26 ROUTE DE CHERBOURG,50340,LES PIEUX,,,80
15105,LILANO,Client,Laboratoire Interprof Lai,50008,SAINT LO CEDEX,,,80
3945,CPFA -CENTRE PROMOTIONNEL,Client,FORMATION A L AUTON.,50405,GRANVILLE CEDEX,,,80
13515,MENUISERIE BOTTIN,Client,14 ROUTE DU VERT BUISSON,50750,BOURGVALLEES,,,80
13306,LAFOSSE MENUISERIE,Client,0,50890,CONDE SUR VIRE,,,80
13629,BASTIDE LE CONFORT MEDICAL,Client,LIEUDIT LE GRAND CHIEN,50300,ST MARTIN DES CHAMPS,,,80
14416,DECATHLON,Client,14 LES HAUTS VENTS,50470,TOLLEVAST,,,80
14688,RY CONCEPT,Client,P.A DE LA FOURCHETTE - CA,50500,CARENTAN LES MARAIS,,,80
4805,NOUET ET FILS,Client,LES VIVIERS,50860,LA MANCELLIERE SUR VIRE,,,80
10520,SOCOPA VIANDES,Client,RUE DU BOCAGE,50200,COUTANCES,,,80
14747,DOMAINE DU COQUEREL,Client,24 ROUTE DU COQUEREL MILL,50600,GRANDPARIGNY,,,80
7078,COPRIMANCHE,Client,RUE DE L EUROPE,50710,CREANCES,,,80
3677,DIELEN LABORATOIRES,Client,PORT DES FLAMANDS,50110,TOURLAVILLE,,,80
4863,COMPAGNIE DES EAUX ET DE,Client,L OZONE,50407,GRANVILLE CEDEX,,,80
14127,AUBRY SAMENERGIES,Client,758 RUE DE LA VIRE,50750,CANISY,,,80
14429,CHRISTAUD COUTANCES,Client,"3,03E+12",50200,COUTANCES,,,80
10238,DECLOSMENIL,Client,18 RUE MINQUIERS,50380,ST PAIR SUR MER,,,80
3691,HARIVEL ARMELLE,Client,"315, RUE HAUT DY",50710,CREANCES,,,80
14579,C.S.I.50,Client,38 RUE DE VILLEDIEU,50000,ST LO,,,80
8673,UNIPATIS PRODUCTION,Client,ZA TESSY,50420,DOMJEAN,,,80
1522,SCOVIMA,Client,ZI D ARMANVILLE,50700,VALOGNES,,,80
3806,GUERIN,Client,ZI DE LA DETOURBE,50890,CONDE SUR VIRE,,,80
1810,FLORETTE,Client,SITE CREALINE,50430,LESSAY,,,80
3407,AGILINK CABLES,Client,PRODUITS DIELECTRIQ.,50500,CARENTAN,,,80
11568,FARAGO MANCHE CALVADOS,Client,"15, ROUTE DE SAINT LO",50160,SAINT-AMAND,,,80
13624,BRICOMARCHE,Client,SAS DOMEX,50000,ST LO,,,80
12385,PIMONT COUVERTURE,Client,ZA LES JONQUAITS RUE EUGE,50680,CERISY LA FORET,,,80
15468,LE CHARPENTE,Client,15 ZONE ARTISANALE,50750,CANISY,,,80
3781,LEGRAND CERBONNEY,Client,"9, RUE DE ST GERMAIN",50307,AVRANCHES CEDEX,,,80
15467,SPL DES PORTS DE LA MANCHE,Client,HALLE A MAREE,50404,GRANVILLE,,,80
4146,ESAT LE MOULIN DE LA MARE,Client,AVENUE D OSCHENFURT,50200,COUTANCES,,,80
3608,HELIOS,Client,EMBALLAGES SOUPLES,50430,LESSAY,,,80
10213,HOPITAL ST JAMES,Client,2 Rte DE PONTORSON,50240,ST JAMES,,,80
12898,HOPITAL ST HILAIRE DU HARCOUET,Client,PLACE DE BRETAGNE,50600,ST HILAIRE DU HARCOUET,,,80
4072,DELPLAST,Client,"120, RUE ROGER GLINEL",50460,QUERQUEVILLE,,,80
15230,ENEDIS,Client,ZA ARMANVILLE,50700,YVETOT BOCAGE,,,80
6017,LEDENTU MOTOCULTURE,Client,ZA LA CHEVALERIE,50000,ST LO,,,80
4512,JARDILAND,Client,CODE MAGASIN,50400,YQUELON,,,80
3422,LA POSTE SAINT LO,Client,D� DE LA MANCHE,50010,SAINT-LO CEDEX,,,80
12170,GIFI MAG,Client,38 AVENUE MARECHAL DE TAS,50100,CHERBOURG EN COTENTIN,,,80
3368,AUCHAN,Client,CENTRE COMMERCIAL,50470,LA GLACERIE,,,80
15545,KADODIS,Client,410 RUE JOSEPH CUGNOT,50000,ST LO,,,80
15138,CUISINE CENTRALE,Client,RUE L ANCIEN CANAL,50500,CARENTAN LES MARAIS,,,80
12172,GIFI MAG,Client,20 ROUTE DE BAYEUX,50000,ST LO,,,80
3563,SOFRILOG - GRANVILLE,Client,TERMINAL FRIGORIFIQUE,50400,GRANVILLE,,,80
14319,COPEPORT,Client,QUAI SUD,50400,GRANVILLE,,,80
3504,CONSTRUCTIONS MECANIQUES,Client,DE NORMANDIE,50105,CHERBOURG CEDEX,,,80
6981,TRANSPORTS HALLAIS,Client,51 ROUTE DE LA ZI,50430,LESSAY,,,80
12236,LEMASSON,Client,239 RUE BARTHELEMY THIMON,50180,AGNEAUX,,,80
7486,DALTONER,Client,915 RUE LOUISE MICHEL,50000,ST LO,,,80
14066,TANGUY MATERIAUX DISTRIBUTION,Client,LA ROUGERIE,35680,LOUVIGNE DE BAIS,,,80
12805,ENCORE,Client,RUE FLANDRES DUNKERQUE,50490,SAINT SAUVEUR  LENDELIN,,,80
14080,SARL AVICOLE DE L OUEST,Client,2 LA CHESNEE,50370,LE GRAND CELLAND,,,80
14468,CHAUSSON MATERIAUX,Client,AG DE ST LO,50000,ST LO,,,80
15554,LM WIND POWER BLADES FRANCE,Client,100 LE FORT DES FLAMANDS,50110,CHERBOURG EN COTENTIN,,,80
14756,CENTRE HABITAT,Client,5 RUE DE L ARQUERIE,50200,COUTANCES,,,80
15283,JARDILAND,Client,MAG 272,50200,ST PIERRE DE COUTANCES,,,80
14797,CHAUSSON MATERIAUX,Client,ZAC PRETOT,50400,GRANVILLE,,,80
12999,COMMUNE DE CHERBOURG,Client,VILLE DE CHERBOURG EN COT,50106,CHERBOURG EN COTENTIN,,,80
11872,ESAT LES MARAIS,Client,14 - 16 BLD DE VERDUN,50500,CARENTAN,,,80
10195,GSBdD,Client,R�gie d avances et de rec,50115,CHERBOURG,,,80
8955,OMNIPESAGE,Client,ZI LA CHEVALERIE,50000,ST LO,,,80
14760,MAS COUTANCES,Client,5 RUE DE L ARQUERIE,50200,COUTANCES,,,80
14771,APEI CENTRE MANCHE FOA,Client,17 RUE DU CHEMIN VERT,50890,CONDE SUR VIRE,,,80
14770,ESAT CONDE,Client,CENTRE HABITAT,50890,CONDE SUR VIRE,,,80
15202,LA FERME DE L ISLE,Client,5261 ROUTE DE L ISLE,50860,MOYON VILLAGES,,,80
15274,PLOMBERIE ROMAIN BRIONNE,Client,LA VENTE,50140,ST CLEMENT RANCOUDRAY,,,80
14821,LESAGE-ENERGIES,Client,Route de la brique,50700,VALOGNES,,,80
15401,LABORATOIRE PINAULT,Client,LES VALLEES,50150,SOURDEVAL,,,80
14758,GORRIAS,Client,RUE LEON JOUHAUX,50000,ST LO,,,80
8784,STATIM,Client,ZI ROUTE DE CARENTAN,50190,PERIERS,,,80
13835,MGC GASTEBOIS,Client,ZONE ARTISANALE,50290,BREHAL,,,80
15017,COMMUNE DE LESSAY,Client,1 RUE DE LA POSTE,50430,LESSAY,,,80
10986,LOXAM,Client,ZI DE DIGULLEVILLE,50440,BEAUMONT HAGUE,,,80
13358,EPISODE,Client,19 RUE D ABOSVILLE,50120,CHERBOURG EN COTENTIN,,,80
12899,CONSEIL DEPARTEMENTAL DE LA,Client,MANCHE,50050,SAINT LO CEDEX,,,80
15602,GRENTE - LEMAITRE,Client,1 LA GARE,50300,LE VAL ST PERE,,,80
14761,FOA APEI CENTRE MANCHE,Client,5 RUE DE L ARQUERIE,50200,COUTANCES,,,80
14412,CEPROLOC,Client,rue Denis Papin,50180,AGNEAUX,,,80
9073,2M PRECISION,Client,ZI LA DETOURBE,50890,CONDE SUR VIRE,,,80
9672,CHRISTOPHE LECESNE,Client,25 RUE DU PAS MOULIN,50710,CREANCES,,,80
13868,VMA 50,Client,"Z,I, DU MOTTE",50300,AVRANCHES,,,80
15635,ATELIER LECERF,Client,4 AVENUE LOUIS LUMIERE,50100,CHERBOURG EN COTENTIN,,,80
9813,ROBIN CHILARD,Client,85 RUE JOSEPH CUGNOT,50000,ST LO,,,80
11795,FPMA,Client,3 RUE CHARLES JOULAN,50410,PERCY,,,80
14711,SODETOUR,Client,Rte du MONT ST MICHEL,50170,LE MONT ST MICHEL,,,80
11685,OVOLAB SAS,Client,1 PARC D ACTIVITE,50160,GUILBERVILLE,,,80
14186,MAITRES LAITIERS,Client,USINE DE MEAUTIS,50500,MEAUTIS,,,80
11817,HERVIEU PAYSAGES,Client,1 CHEMIN DES BRUYERES,50180,HEBECREVON,,,80
14413,MAINCO,Client,Les landes de Raumarais,50440,LA HAGUE (DIGULEVILLE),,,80
14616,AU CHALET GOURMAND,Client,23 RUE DU PONT ROSE,50270,BARNEVILLE CARTERET,,,80
15646,COLISERVICE,Client,8 RUE DE POMMENAUQUE,50500,CARENTAN LES MARAIS,,,80
14314,2 ED - PONTS,Client,LA FOSSE CORDON,50300,PONTS,,,80
15067,CODICA VI -50000,Client,480 RUE JOSEPH CUGNOT,50000,ST LO,,,80
13411,CTI BAT,Client,ZA DE LA CROIX CARREE,50180,AGNEAUX,,,80
14590,CHAISERONNE,Client,Route d Avranches,50370,BRECEY,,,80
13941,MPR MARINVAST SAS,Client,MAISON DES PRODUITS REGIO,50690,MARTINVAST,,,80
14985,AXIANS FIBRE NORMANDIE,Client,562 RUE JULES VALLES,50000,ST LO,,,80
13636,GAEC DE CARTOT,Client,25 RTE DU CAP,50760,REVILLE,,,80
13947,MASSILY,Client,RUE CONILLOT,50400,GRANVILLE,,,80
14560,AQUAFLO,Client,1 ROUTE DE BAYEUX,50810,LA BARRE DE SEMILLY,,,80
10332,GAEC DE LA CORDEE,Client,LA PLOTINIERE,50890,CONDE SUR VIRE,,,80
13476,SARL EDFRAY,Client,864 RUE JULES VALLES,50000,ST LO,,,80
15092,Le 49 Cave et Bistrot,Client,49 RUE DIVISION LECLERC,50300,AVRANCHES,,,80
14301,CONNIN OLIVIER,Client,36 ROUTE DES ECOLES,50250,LA HAYE,,,80
12123,JEANNE POIDS LOURDS,Client,ZI POMMENAUQUE,50500,CARENTAN LES MARAIS,,,80
14610,DES SABLES PRIMEURS,Client,2 RTE DU HAMEAU DENIS,50270,SURTAINVILLE,,,80
13939,JOKAPE - INTERMARCHE,Client,1A RUE DES TANGUIERS,50430,LESSAY,,,80
14330,VIGER COULEURS,Client,124 RUE DE NORMANDIE,50000,ST LO,,,80
15639,AGRILEADER TRANSPORTS,Client,354 RUE DE LA HAUTE FOLIE,50000,ST LO,,,80
11732,JMT ALIMENTATION,Client,RUE DU BOIS ARDENT,50000,ST LO,,,80
13688,TORCHIO - TOURLAVILLE,Client,0,50110,TOURLAVILLE,,,80
14335,COMALDIS HDF,Client,132 CHEMIN DU VIEUX MONT,60170,CAMBRONNE LES RIBECOURT,,,80
10582,KOBA GLOBAL SERVICES,Client,ROUTE DE NEUILLY SOUS CLE,60290,RANTIGNY,,,80
11807,LEADER PRICE,Client,42 ROUTE DE ROUEN,60350,TROSLY BREUIL,,,80
11848,FENWICK PICARDIE,Client,1078 rue saint Hilaire,60150,COUDUN,,,80
14339,BONDU,Client,5 RUE JANIG CORLAY,35136,ST JACQUES DE LA LANDE,,,80
13295,ATELIERS K PRODUCTION,Client,RD18,61450,LA FERRIERE AUX ETANGS,,,80
13002,AGRIAL - TINCHEBRAY,Client,ZI,61800,TINCHEBRAY BOCAGE,,,80
12742,ROIMIER TESNIERE,Client,30 RUE FRANCOISE ARGO,61250,VALFRAMBERT,,,80
11784,AGRILEADER,Client,LA HAUTE COSNIERE,61350,ST MARS D EGRENNE,,,80
13987,ESPACE CULINAIRE,Client,RUE DE L INDUSTRIE,61700,DOMFRONT EN POIRAIE,,,80
13203,DISTRICO - TRUN,Client,MOULIN DE FEL,61160,TRUN,,,80
12179,GIFI,Client,73 RUE DE LA CHAUSSEE,61100,FLERS,,,80
13767,METAFORM,Client,ZI DE LA COLOMBEE,61430,ATHIS DE L ORNE,,,80
13979,HODIESNE TRANSPORTS ET NEGOCE,Client,24 RUE DE LANDISACQ,61800,CHANU,,,80
7278,ALENCON DISTRIBUTION,Client,ROUTE DU MANS,72610,ARCONNAY,,,80
6051,CONTITRADE FRANCE,Client,ZI LE MEUX,60880,LE MEUX,,,80
5889,MARELLI ARGENTAN FRANCE,Client,"9/11,RUE MAURICE RAVEL",61200,ARGENTAN,,,80
6511,BOLAIDOR,Client,BP 32,61220,ST HILAIRE DE BRIOUZE,,,80
10671,R2C,Client,CS 20187,61006,ALENCON CEDEX,,,80
7949,VITRAGLASS,Client,ZI D ECOUVES,61007,ALENCON CEDEX,,,80
11404,3922 SEES POINT P,Client,RUE DES GUICHETS,61500,SEES,,,80
10718,TRANSPORTS QUINCE,Client,LIEU DIT FROMENTEL,61210,LA FRESNAYE AU SAUVAGE,,,80
5183,SERVII,Client,LES REHARDIERES,61290,LONGNY AU PERCHE,,,80
5987,GARNIER PERE ET FILS,Client,LA QUEUE DE FRESNES,61800,FRENES,,,80
14851,PM ENVIRONNEMENT GROUP,Client,MONTHIOUX,61500,AUNOU SUR ORNE,,,80
633,SDPS,Client,1 RUE DES ACACIAS,61420,ST DENIS SUR SARTHON,,,80
15437,VERESCENCE ORNE,Client,ROUTE DE JOUE DE PLAIN,61150,ECOUCHE,,,80
15024,CHAUSSON MATERIAUX,Client,LA CLOCHE,61250,VALFRAMBERT,,,80
13878,C.V.I.N,Client,ROUTE MORTAGNE,61110,REMALARD,,,80
3302,DUFRA - INTERMARCHE,Client,AVENUE DE LA 2EME DB,61200,ARGENTAN,,,80
11863,ORNEDIS SUPER U,Client,107 AV BASINGSTOKE,61000,ALENCON,,,80
8346,SOPARCO,Client,ZI LE MUSSET,61110,CONDE SUR HUISNE,,,80
11724,BOIS TRAITES DE L OUEST,Client,ZA DE LONRAI,61250,LONRAI,,,80
12656,AGRIAL - ECOUCHE LES VALLEES,Client,LIEU DIT HAZES,61150,ECOUCHE LES VALLEES,,,80
9119,GROUPE SEB Destockage,Client,31 ROUTE D ANCINNES,61000,ALENCON,,,80
3289,LEPICARD,Client,ZI ROUTE DE LA FALAISE,61160,TRUN,,,80
13965,MAHERAULT TOURNAGE USINAG,Client,E DU BOIS,61410,HALEINE,,,80
14062,TECHNIGRAPHIC,Client,ST GERMAIN DE LA COUDRE,61130,BELLEME,,,80
10311,DISTRICO MAG VERT - ARGENTAN,Client,ZA BEAULIEU,61200,ARGENTAN,,,80
12653,AGRIAL - COURTOMER,Client,ZI,61390,COURTOMER,,,80
12665,DISTRICO - MOULINS LA MARCHE,Client,33 RUE JEAN GABIN,61380,MOULINS LA MARCHE,,,80
13906,SOLMUR,Client,ZI NORD,61000,ALENCON,,,80
567,SOCIETE NOUVELLE WM,Client,ROUTE DE GACE,61370,STE GAUBURGE STE COLOMBE,,,80
13720,DECICAL ACOUSTIQUE,Client,PA DU LONDEAU,61000,CERISE,,,80
7552,LA POSTE ARGENTAN,Client,PPDC 611050,61201,ARGENTAN CEDEX,,,80
12041,COLLECTIF D URGENCE,Client,46 RUE NICOLAS APPERT,61000,ALENCON,,,80
9319,GREE STEPHANE,Client,MENUISIER - EBENISTE,61200,SARCEAUX,,,80
8010,GIFI MAG,Client,194 RUE DE BRETAGNE,61000,ALENCON,,,80
12707,AGROBIO,Client,RUE PAUL GIROD,61250,DAMIGNY,,,80
7965,GIFI MAG,Client,RUE DE LA BEURRERIE,61200,ARGENTAN,,,80
15375,EFFITERR,Client,76 RUE DU CHEMIN DE MAURE,61000,ALENCON,,,80
12660,POINT VERT - LE MERLERAULT,Client,ROUTE DE ST GERMAIN CLAIR,61240,LE MERLERAULT,,,80
12649,AGRIAL - BAZOCHE SUR HOENE,Client,ROUTE DE MORTAGNE,61560,BAZOCHES SUR HOENE,,,80
11189,LES RESTAURANTS DU COEUR,Client,20 RUE DE L INDUSTRIE,61200,ARGENTAN,,,80
12396,LES RESTAURANTS DU COEUR,Client,25 RUE SOEUR MARIE BOITIE,61600,LA FERTE MACE,,,80
12040,COTRIVA SERVICE 61,Client,14 RUE SEURIN,61000,ALENCON,,,80
12441,BAYI TRUCKS ALENCON,Client,4 RUE LAZARE CARNOT,61003,ALENCON CEDEX,,,80
12940,NORMANDIE TRAP DISTRIBUTION,Client,6 RUE DES ROSIERS,61250,LONRAI,,,80
15253,LINEA BOIS,Client,26 ROUTE CHAPELLE,61250,RADON,,,80
15326,COTE NATURE,Client,ZA LA BOISSIERE,61250,CONDE SUR SARTHE,,,80
14815,PROMATIC FRANCE,Client,20 RUE YVAN SIBONI ZA DE,61250,LONRAI,,,80
10845,TECHMA,Client,RUE ARISTIDE BOUCICAUT,61100,FLERS,,,80
11444,LYCEE MEZEN,Client,25 RUE MARCEL MEZEN,61000,ALENCON,,,80
11736,AHMC,Client,LA VERRERIE,61190,TOUROUVRE,,,80
11091,EUROFAC INDUSTRIES,Client,RUE JEAN RACINE,61270,RAI,,,80
12350,LAURNET,Client,NETTO,61200,ARGENTAN,,,80
14328,SAPL,Client,LE BIOT GAUVILLE,61550,GAUVILLE,,,80
10142,BROUSSE CIR RELIGIEUX,Client,3 RUE DU MOULIN A VENT,61400,MORTAGNE AU PERCHE,,,80
12827,TTB TRANSPORT,Client,Lieu dit Les Drag�es,61250,CONDE SUR SARTHE,,,80
10843,EURODIS,Client,RUE DES PEUPLIERS,61600,LA FERTE MACE,,,80
12122,JOUIS BENOIT,Client,LA PLUMETTE,61160,VILLEDIEU LES BAILLEUL,,,80
11485,SMA,Client,LE BOURG,61320,ST MARTIN DES LANDES,,,80
11926,TRANSDEV NORMANDIE INTERURBAIN,Client,13 RUE LAZARE CARNOT,61000,ALENCON,,,80
11033,STPB,Client,RUE DES ROUSSELETTES,61200,ARGENTAN,,,80
14270,PENET,Client,ZAC DU MONNE,72700,ALLONNES,,,80
15339,FIRST TRANSPORT AFFRETEMENT 72,Client,COMPTOIRS 72,72230,MONCE EN BELIN,,,80
15037,LEADER NORMANDIE 1,Client,MAGASIN 4957,72130,FRESNAY SUR SARTHE,,,80
13138,TREMBLAYE SERVICES,Client,17 A 25 RUE ANDRE CITROEN,72021,LE MANS,,,80
15527,MINOTERIE TROTTIN,Client,MOULIN DES NOYERS,72530,YVRE L EVEQUE,,,80
14496,SEDEP,Client,LA BUTTE AU GEAIS,72610,FYE,,,80
7977,PAL DECAP,Client,ZA DE LA FOLIE,80220,GAMACHES,,,80
14025,JENNIVER,Client,110 AVENUE PIERRE ET MARI,80350,MERS LES BAINS,,,80
11709,ICA,Client,270 ROUTE DU TREPORT,80140,SENARPONT,,,80
10750,NORD PICARDIE JOINTS,Client,5 BIS RUE RICHARD LENOIR,80220,GAMACHES,,,80
2177,LYOVEL NORD PICARDIE NORMANDIE,Client,11 RUE DU PONT,80110,DOMART SUR LA LUCE,,,80
8174,PLASTIC BILLAT,Client,ZAE LA FOLIE,80220,GAMACHES,,,80
15604,MAYTHICALO,Client,7 RUE DE L ABBE GRUGEON,60380,ST QUENTIN DES PRES,,,80
8825,SIARR,Client,STE IND. ATTELAGES,76810,LUNERAY,,,80
1270,SPHERE FRANCE,Client,B.P. 1,76860,OUVILLE,,,80
5503,BPREX HEALTHCARE OFFRANVILLE,Client,ZI DU DOUXMESNIL,76550,OFFRANVILLE,,,80
1403,PTL,Client,0,76860,OUVILLE LA RIVIERE,,,80
1301,VALLOUREC TUBES FRANCE,Client,USINE DE DEVILLE,76250,DEVILLE LES ROUEN,,,80
624,PLASTUNI NORMANDIE,Client,BP  5,76550,HAUTOT SUR MER,,,80
4827,EDF CNPE DE PENLY,Client,MAGASIN GENERAL,76207,DIEPPE,,,80
1041,ROUSSEAU,Client,RUE JACQUES EMILE BLANCHE,76550,OFFRANVILLE,,,80
1242,SOFRILOG,Client,10 RUE DES JARDINS OUVRIE,76200,DIEPPE CEDEX,,,80
7541,DIEPPE MAREE,Client,48 QUAI GALLIENI,76200,DIEPPE,,,80
270,TERRE DE LIN,Client,STE COOP AGRICOLE,76590,CROSVILLE SUR SCIE,,,80
3656,SATIMAT,Client,"15, RTE DE NORMANDIE",76260,LONGROY,,,80
13895,REGIE DIEPPOISE DES ACTIVITES,Client,PORTUAIRES,76200,DIEPPE,,,80
272,TERRE DE LIN,Client,SOCIETE COOPERATIVE,76630,DOUVREND,,,80
1627,WALOR EXTRUSION,Client,100 BLD FRERES ROUSSEAU,76550,OFFRANVILLE,,,80
9662,PIERRE CRAIGNOU,Client,MIN,76042,ROUEN CEDEX 1,,,80
10721,LA FERME DU BEAUMONT,Client,ROUTE DE BEAUMONT,76260,EU,,,80
6783,MANUFACTURE ALPINE DIEPPE JEAN,Client,REDELE,76885,DIEPPE CEDEX,,,80
8685,BRICHEUX,Client,217 RUE DE LA PETITE HEUZ,76950,LES GRANDES VENTES,,,80
2631,BELY MAREE,Client,7 COURS DE DAKAR,76200,DIEPPE,,,80
15249,TIMAC AGRO,Client,Quai Nord,76470,LE TREPORT,,,80
14017,EINA,Client,SELHAGROUP,76260,EU,,,80
269,TERRE DE LIN,Client,SOCIETE  COOPERATIVE,76740,ST PIERRE LE VIGER,,,80
8513,SOCODI INTERNATIONAL,Client,5 RUE DES GRANDES SALINES,76370,MARTIN EGLISE,,,80
731,MANUBOIS,Client,481 RTE D AUFFAY,76950,LES GRANDES VENTES,,,80
6084,FULLWOOD PACKO SAS,Client,ZONE INDUSTRIELLE,76440,FORGES LES EAUX,,,80
486,PRECISION COMPONENTS,Client,INDUSTRIES,76510,ST NICOLAS D ALIERMONT,,,80
8431,3861 DIEPPE CENTRE POINT P,Client,26 COURS DE DAKAR,76200,DIEPPE,,,80
14732,PROLEIN,Client,QUAI DES INDES,76200,DIEPPE,,,80
11385,3862 DIEPPE NEUVILLE POINT P,Client,ZI DE ROUXMESNIL BOUTEILL,76370,NEUVILLE LES DIEPPE,,,80
9069,LUNOR DISTRIBUTION,Client,RUE DU GENERAL DE GAULLE,76810,LUNERAY,,,80
2627,CBI CAFFIER BARREAU,Client,INDUSTRIES SN,76340,BLANGY SUR BRESLE,,,80
6917,STMF,Client,ROUTE DE ST PIERRE EN VAL,76260,EU,,,80
12835,GT LOGISTICS.03,Client,ZI RUE LAVOISIER,76260,EU,,,80
12907,SOMATICO,Client,"13, RUE DES POITREAUX",76810,LUNERAY,,,80
9929,FOLLAIN,Client,394 ROUTE DE LA GARE,76890,ST MACLOU DE FOLLEVILLE,,,80
14007,TCP CRYOPACK CHEZ FERRERO,Client,VILLERS 2 BAT 3,76360,VILLERS ECALLES,,,80
2127,SAINT VALERY DISTRIBUTION,Client,E. LECLERC,76460,SAINT VALERY EN CAUX,,,80
15003,NFD CONTROLE ET FORMATION,Client,267 RUE DE L EUROPE,76510,ST NICOLAS D ALIERMONT,,,80
15575,DBM,Client,1282 Rue Robert  Lefranc,76510,ST NICOLAS D ALIERMONT,,,80
5863,IVT,Client,CHEMIN DEPARTEMENTAL N�98,76480,YAINVILLE,,,80
6893,ASTEELFLASH FRANCE,Client,NORMANDIE,76250,DEVILLE LES ROUEN,,,80
8674,DE SUTTER,Client,3 RUE DE L ANCIENNE DISTI,76730,BIVILLE LA RIVIERE,,,80
13280,SUEZ CHEZ SANOFI LE TRAIT,Client,1051 BOULEVARD INDUSTRIEL,76580,LE TRAIT,,,80
894,RESEAU PRO ROUEN,Client,AGENCE DE ROUEN,76161,DARNETAL CEDEX,,,80
9186,CARBON META,Client,31 RUE BLERIOT,76370,MARTIN EGLISE,,,80
12820,SRPM TRANSPORT,Client,AV DE BICHERAY - MIN,76000,ROUEN,,,80
1280,ORANO DEMANTELEMENT,Client,30 ROUTE DES TENNIS,76450,PALUEL,,,80
14346,NEVEU TRANSPORTS,Client,CS 70012,76810,LUNERAY,,,80
11810,LEADER PRICE,Client,RUE SAMUEL LECOEUR,76000,ROUEN,,,80
10258,AGRUFRUITS,Client,BAT B2 CASES12/13,76042,ROUEN CEDEX,,,80
2190,RTE TRANSPORT ELECTRICITE,Client,NORMANDIE PARIS,76153,MAROMME CEDEX,,,80
9314,SALICOQUE MAREE,Client,5 COURS DE DAKAR,76200,DIEPPE,,,80
8790,DE PATTEVILLE,Client,95 ROUTE DES TOURELLES,76550,SAUQUEVILLE,,,80
11159,SOPRAGGLO,Client,9 ROUTE DE BLANGY,76260,LONGROY,,,80
13268,DIEPPE ALUMINIUM,Client,ZI Louis Delaporte,76370,ROUXMESNIL BOUTEILLES,,,80
1579,KNAUF INDUSTRIES NORD,Client,ROUTE DE BARENTIN,76480,DUCLAIR,,,80
6082,LARIVIERE AGENCE DE DIEPPE,Client,CODE ORGANISATION : 280,76370,ROUXMESNIL BOUTEILLES,,,80
11323,MOONEN VAN MEER,Client,4 RUE DE L EGLISE,76740,HEBERVILLE,,,80
1408,MIS INDUSTRIE,Client,LE VILLAGE,76730,AUZOUVILLE SUR SAANE,,,80
799,HDI,Client,SITE DE BLANGY OUEST,76340,BLANGY SUR BRESLE,,,80
11638,COULEURS TOLLENS,Client,CHEMIN DES VERTUS,76200,DIEPPE,,,80
5509,GYPASS FERMETURE,Client,0,76630,ENVERMEU,,,80
5786,SNM,Client,BP 55,76340,BLANGY SUR BRESLE,,,80
6850,VERGER DE BEAUNAY,Client,G ET A BOUQUET,76590,BELMESNIL,,,80
13856,SOLOC RABOTAGE,Client,13 BIS ROUTE DU HAVRE,76150,ST JEAN DU CARDONNAY,,,80
6977,DE BRABANDERE,Client,24 RUE DES FLEURS,76450,BERTREVILLE,,,80
774,MASUREL POLLET*,Client,ZI FORGES LES EAUX,76440,LE FOSSE,,,80
2210,SOCIETE CIVILE DU YAUME,Client,FERME DU YAUME,76450,VEULETTES SUR MER,,,80
10381,VSR-F,Client,RD 925,76860,LONGUEIL,,,80
12088,GAMM VERT VILLAGE,Client,MAG 091,76220,FERRIERES EN BRAY,,,80
14888,IDEAL AUDIO,Client,109 SENTE DES MOINES,76550,SAUQUEVILLE,,,80
14300,PARIN PNEUS,Client,route de neufch�tel,76660,LONDINIERES,,,80
12087,GAMM VERT VILLAGE,Client,MAG 040,76560,DOUDEVILLE,,,80
14343,EN VERT LA TERRE,Client,191 ROUTE DE L ANCIENNE F,76730,SAANE ST JUST,,,80
11466,HENB,Client,165 RUE DU GENERAL DE GAU,76770,LE HOULME,,,80
13376,ACIALU MENUISERIES,Client,14 ZAC DU PARC,76770,MALAUNAY,,,80
6095,AUCHAN SUPERMARCHE SAS,Client,MAGASIN 1396,76380,CANTELEU,,,80
6566,LATEURTRE MENUISERIE,Client,"403, ROUTE DE VEULETTES",76450,PALUEL,,,80
1114,CRISTAL UNION,Client,SUCRERIE DE FONTAINE LE D,76740,FONTAINE LE DUN,,,80
11915,PG DIFFUSION,Client,2 Rue de l Ancien Port,76370,MARTIN EGLISE,,,80
13959,CIM USINAGE,Client,ZONE INDUSTRIELLE,76730,BACQUEVILLE EN CAUX,,,80
6587,MIN,Client,AVENUE DU CDT BICHERAY,76042,ROUEN CEDEX 01,,,80
14048,FRUITERIE COLBERT,Client,28 PLACE COLBERT,76130,MONT ST AIGNAN,,,80
8888,MAISONS LUCAS,Client,2 ROUTE DE NEUFCHATEL,76230,ISNEAUVILLE,,,80
9589,GTM NC,Client,ZA PLATEAU OUEST,76460,ST VALERY EN CAUX,,,80
6933,NIORT FRERES,Client,AUTODISTRIBUTION,76200,DIEPPE,,,80
6720,CARBON DECOR,Client,18 RUE MARCEL GAMOT,76200,DIEPPE,,,80
14266,PENET,Client,0,76150,MAROMME,,,80
11391,3882 GREUVILLE POINT P,Client,407 RUE DE L EGLISE,76810,GREUVILLE,,,80
10475,DJSL BOIS,Client,ZI RUE DES FRERES RENAULT,76730,BACQUEVILLE EN CAUX,,,80
2239,DEREMAUX,Client,BLD VICTOR HUGO - Z.I.,76390,AUMALE,,,80
12904,LEBORGNE,Client,32  ROUTE DE DIEPPE,76740,LE BOURG DUN,,,80
6024,ENERGIE LAIT LEFRANC,Client,RTE DU ROUVRAY CATILLON,76440,RONCHEROLLES EN BRAY,,,80
4345,LEBLON DELIENNE,Client,ZONE INDUSTRIELLE,76270,NEUFCHATEL EN BRAY,,,80
4847,BRUN,Client,PLACE DE LA GARE,76340,VILLERS SOUS FOUCARMONT,,,80
4955,PAVARD,Client,"2, RUE DU JEU DE PAUME",76390,AUMALE,,,80
813,MORJAT JARDINER. VILMORIN,Client,ZI DES PRES SALES,76260,EU,,,80
691,LEGRAND DERI,Client,"7, RUE PAUL NOUEL",76770,MALAUNAY,,,80
2495,CLINIQUE DU BELVEDERE,Client,0,76130,MONT ST AIGNAN,,,80
11327,LTV,Client,3 RUE DU DOCTEUR LEJEUNE,76390,AUMALE,,,80
15419,XPO LAST MILES FRANCE,Client,273 ROUTE DE LA REPUBLIQU,76890,CALLEVILLE DEUX EGLISES,,,80
6482,ORANO DS,Client,30 ROUTE DES TENNIS,76450,PALUEL,,,80
487,PRECISION COMPONENTS,Client,INDUSTRIES,76260,EU,,,80
4460,ENDEL,Client,0,76460,ST VALERY EN CAUX,,,80
12263,NORMANDIE SERVICE FRAIS,Client,102 RUE D AUFFAY,76950,LES GRANDES VENTES,,,80
5614,SAPP MAXIM S,Client,14 RUE ALBERT EINSTEIN,76150,ST JEAN DU CARDONNAY,,,80
11650,POM ALLIANCE,Client,76 RUE DU GENERAL DE GAUL,76810,LUNERAY,,,80
14736,OPALE EQUIPEMENT,Client,ZI RUE DE LA CROIX ST LEO,76730,BACQUEVILLE EN CAUX,,,80
11084,AUCHAN SUPERMARCHE,Client,N� 1346,76810,LUNERAY,,,80
13525,VULCAIN PREVENTION INCENDIE,Client,1319 Rue du Vert BUISSON,76160,ST LEGER DU BOURG DENIS,,,80
9520,DAGICOUR PROJECTION,Client,229 RUE TUROLD,76630,ENVERMEU,,,80
13652,VILLE DE MAROMME,Client,PLACE JEAN JAURES,76150,MAROMME,,,80
15006,NICOLAS GANT,Client,"6, ROUTE DU HAVRE",76150,ST JEAN DU CARDONNAY,,,80
5274,GRAINETERIE TESSON,Client,31 ROUTE DE LA MER,76590,BELMESNIL,,,80
14424,FRIGO TRANSPORTS 76,Client,MIN DE ROUEN,76000,ROUEN,,,80
12357,RUDOLF FRANCE,Client,2022 Route de DIEPPE,76230,QUINCAMPOIX,,,80
7601,DALKIA FRANCE,Client,55 AVENUE DE BUCHOLZ,76380,CANTELEU,,,80
15628,MANCHE INDUSTRIE MARINE,Client,19 RUE CHARLES BLOUND,76200,DIEPPE,,,80
15089,LRS CHAUDRONNERIE,Client,6. RUE VERDIER MONETTI,76880,ARQUES LA BATAILLE,,,80
10999,MAIRIE DE CAILLY,Client,RUE DE L EGLISE,76690,CAILLY,,,80
12082,SYLVAIN CUISINES,Client,RUE DU MARQUIS DE RADIOL,76810,LUNERAY,,,80
12037,GIFI,Client,1200 RUE DE LA LIBERATION,76550,ST AUBIN SUR SCIE,,,80
2877,FREMACH,Client,"338, RUE D ARQUES",76510,ST NICOLAS D ALIERMONT,,,80
15368,DISTRIBUTION YVETOTAISE,Client,BP 109,76190,YVETOT,,,80
13382,SAVEURS SANS,Client,7 AVENUE DU COMMANDANT BI,76042,ROUEN,,,80
12825,MONTIS,Client,INTERMARCHE,76230,ISNEAUVILLE,,,80
4454,DIRECTION REGIONALE,Client,DES FINANCES PUBLIQUES,76037,ROUEN CEDEX,,,80
15439,FALCH,Client,"140, RUE DES BOURRELIERS",76760,YERVILLE,,,80
13864,CLINIQUE SAINTE-ANTOINE,Client,696 RUE ROBERT PINCHON,76230,BOIS GUILLAUME,,,80
11317,FORGES THERMAL,Client,AVENUE DES SOURCES,76440,FORGES LES EAUX,,,80
10876,GIFI MAG,Client,ZAC DE LA CARBONNIERE,76360,BARENTIN,,,80
14283,U EXPRESS,Client,31 ROUTE NATIONALE,76116,MARTAINVILLE EPREVILLE,,,80
14700,FERME GAEC DU BEAUNAY,Client,800 RUE DES VERGERS CI 16,76890,BEAUVAL EN CAUX,,,80
11450,MEDIA PLUS,Client,518 BOULEVARD DE NORMANDI,76360,BARENTIN,,,80
13227,VIN,Client,59 RUE DE LA HETRAIE,76760,ECTOT L AUBER,,,80
14462,ETABLISSEMENT BOISHEBERT,Client,RUE AVENIR ZAC LA VARENNE,76590,CRIQUETOT SUR LONGUEVILLE,,,80
12339,EU MAGASIN NOZ,Client,Code Magasin : F825,76260,EU,,,80
1621,MECA MOULES SERVICES,Client,RUE MARCEL PORQUIER,76340,MONCHAUX SERENG,,,80
11245,GIFI,Client,PLACE DE LA LIBERATION,76390,AUMALE,,,80
5780,MAVILAN,Client,RTE DE GAILLEFONTAINE,76270,NEUVILLE FERRIERES,,,80
15594,DE LA H�TRAIE,Client,4 rue des H�tres,76740,ST PIERRE LE VIEUX,,,80
1425,TISSAGE DU RONCHAY,Client,RUE AUX LOUPS,76810,LUNERAY,,,80
10546,AU PANIER DE LA FERME,Client,230 ROUTE DU MONT ECACHE,76116,ST DENIS LE THIBOULT,,,80
1545,ESI DE ROUEN,Client,4 RUE DES MOUETTES,76132,MONT SAINT AIGNAN CEDEX,,,80
8141,LENOIR,Client,96 RTE DE RENFEUGERES,76570,GOUPILLIERES,,,80
12207,DELICES PRIMEURS,Client,MIN DE ROUEN,76250,DEVILLE LES ROUEN,,,80
5916,TECHNIC FOOD,Client,"16,AVENUE CARNOT",76250,DEVILLE LES ROUEN,,,80
2414,AVENEL,Client,"1, RUE LUCIEN FROMAGE",76161,DARNETAL,,,80
14705,CENTRE DES FINANCES PUBLIQUES,Client,6 BOULEVARD G CLEMENCEAU,76200,DIEPPE,,,80
9036,ADSL,Client,ZI LOUIS DELAPORTE,76370,ROUXMESNIL BOUTEILLES,,,80
10926,RENAULT COUVERTURE,Client,LES ARTISANS DU TOIT,76810,LUNERAY,,,80
14538,RESINE STONE NORMANDIE,Client,"5, RUE ALBERT EINSTEIN",76150,ST JEAN DU CARDONNAY,,,80
12902,FPIN,Client,14 RUE CHARLES BLOUND,76200,DIEPPE,,,80
13985,SNCI CARROSSERIE ET MECANIQUE,Client,1 RUE DENIS PAPIN,76150,MAROMME,,,80
11682,METTELLE TRANSPORTS,Client,"5, RUE DU STADE",76340,FOUCARMONT,,,80
1155,SCOPEHM,Client,"37,RUE DE STALINGRAD",76886,DIEPPE CEDEX,,,80
11626,SADA DEVELOPPEMENT,Client,LE PETIT VERGER,76160,PREAUX,,,80
9185,CARBON META,Client,18 RUE MARCEL GAMOT,76200,DIEPPE,,,80
15196,DIEPPE EQUIP AUTO,Client,ZAC EUROCHANNEL,76370,DIEPPE,,,80
11167,GIFI MAG,Client,LIEU DIT GRAND PRES,76220,FERRIERES EN BRAY,,,80
13218,LE PETIT FORESTIER LOCATION,Client,5 Bis Avenue du Cdt BICHE,76000,ROUEN,,,80
14795,INITIALES 3D,Client,rue Maryse Basti�,76520,BOOS,,,80
14990,EURO CHANNEL LOGISTICS,Client,RUE JEAN REDELE,76370,MARTIN EGLISE,,,80
15496,BRASSERIE DU ZINK,Client,6 RUE DE FRECKENHORST,76570,PAVILLY,,,80
827,KOYO BEARINGS VIERZON MAROMME,Client,0,76153,MAROMME CEDEX,,,80
13113,BOURY SEBASTIEN,Client,LE TILLEUL N�2,76730,BACQUEVILLE EN CAUX,,,80
14364,SB LOCATION,Client,LE TILLEUL N�2,76730,BACQUEVILLE EN CAUX,,,80
11516,AFTRAL FC IR NORD,Client,BP 70091,60603,BREUIL LE VERT,,,80
12259,SGAMI OUEST GNS CAFZ 035,Client,28 RUE DE LA PILATE,35207,RENNES CEDEX 2,,,80
10,SAD ROUEN,Client,5 RUE DES CATELIERS,76800,ST ETIENNE DU ROUVRAY,,,80
1119,MAGNA ELECTRONICS FRANCE SAS,Client,B.P. 506,76807,ST ETIENNE DU ROUVRAY CDX,,,80
2406,TOTAL LUBRIFIANTS,Client,USINE DE ROUEN,76121,LE GRAND QUEVILLY CEDEX,,,80
13988,SETCARGO,Client,Bld de l �le aux oiseaux,76530,GRAND COURONNE,,,80
13378,ATALIAN CHEZ UPM,Client,0,76530,GRAND COURONNE,,,80
4930,NORMANDIE MANUTENTION,Client,ZAC DE LA VENTE OLIVIER,76808,ST ETIENNE DU ROUVRAY,,,80
15207,DS SMITH PAPER ROUEN,Client,PARC VIEUX PAPIER,76808,ST ETIENNE DU ROUVRAY CDX,,,80
12147,FICEP CHEZ LUBRIZOL,Client,SERVICES COMPTABILITE,76173,ROUEN CEDEX,,,80
10377,NETMAN CHEZ LUBRIZOL,Client,BP 1062,76000,ROUEN,,,80
13292,NIORT FRERES,Client,ZONE INDUSTRIELLE,76800,SAINT-ETIENNE-DU-ROUVRAY,,,80
1715,NORMANDIE MANUTENTION,Client,ZAC DE LA VENTE OLIVIER,76808,ST ETIENNE DU ROUVRAY CX,,,80
15206,DS SMITH PAPER ROUEN,Client,PRODUCTION CVP,76808,ST ETIENNE DU ROUVRAY CDX,,,80
836,NORMANDE DE MANUTENTION,Client,TERMINAL CONTENEURS ET,76530,GRAND COURONNE,,,80
5379,ETI MAINTENANCE,Client,TS DE NAWI CONTRACTING,76120,LE GRAND QUEVILLY,,,80
10328,SNIC,Client,RUE DU PRE AUX BOEUFS,76800,ST ETIENNE DU ROUVRAY,,,80
1411,TRANSPORTS OISSEL,Client,Z.I. DE LA POUDRERIE,76350,OISSEL,,,80
9427,POMONA PASSION FROID,Client,6 AVENUE PAUL DELORME,76120,LE GRAND QUEVILLY,,,80
1723,SIRM,Client,515 BLD DAMBOURNEY,76350,OISSEL,,,80
9498,TRANSP DEP INDEPENDANT TDI,Client,15 19 RUE ETIENNE DOLET,76140,LE PETIT QUEVILLY,,,80
6185,SNCF EVEN ROUEN SUD,Client,1 PLACE DE LA GARE,76300,SOTTEVILLE LES ROUEN,,,80
1383,PRESTA TRANSPORTS,Client,244 CHEMIN DU GORD,76120,LE GRAND QUEVILLY,,,80
2033,COOPERATEURS DE NORMANDIE,Client,8 AVENUE PAUL DELORNE,76126,LE GRAND QUEVILLY,,,80
912,GRAND PORT MARITIME DE ROUEN,Client,"SCE ""ATELIERS MAGAS""",76380,DIEPPEDALLE CROISSET,,,80
13715,TRANSPORTS SBTR,Client,9030 AVENUE DE ST EXUPERY,76800,ST ETIENNE DU ROUVRAY,,,80
13444,PRESTA SERVICES,Client,6 RUE DES PATIS,76143,LE PETIT QUEVILLY,,,80
1426,VILLE DE ROUEN,Client,COLLECT TERRITORIALE - DE,76037,ROUEN,,,80
8055,ADEQUATION SECURITE,Client,71 RUE JACQUARD,76140,LE PETIT QUEVILLY,,,80
15205,DS SMITH PAPER ROUEN,Client,MAGASIN PAPIER,76808,ST ETIENNE DU ROUVRAY CDX,,,80
13850,BOUYGUES CHEZ LUBRIZOL,Client,0,76173,ROUEN,,,80
9295,SD LOG,Client,BLD DE L ILE AUX OISEAUX,76530,GRAND COURONNE,,,80
13432,MOREAU J.P.,Client,1095 ROUTE DE PARIS,76520,FRANQUEVILLE ST PIERRE,,,80
10562,ANVOLIA,Client,355 RUE VICTOR HUGO,76300,SOTTEVILLE LES ROUEN,,,80
11514,BEKO,Client,ZA DE LA VOUTE,76650,PETIT-COURONNE,,,80
3572,SNT-DURIEZ,Client,ATELIER THT,76120,LE GRAND QUEVILLY,,,80
13404,METROPOLE ROUEN NORMANDIE,Client,TCAR DEPOT METROBUS ST JU,76140,LE PETIT QUEVILLY,,,80
15209,DS SMITH PAPER ROUEN,Client,MAINTENANCE / MAGASIN GEN,76808,ST ETIENNE DU ROUVRAY CDX,,,80
12074,SEBEMEX AGENCE ST ETIENNE DU,Client,ROUVRAY,76800,ST ETIENNE DU ROUVRAY,,,80
11107,FEDEX EXPRESS INTERNATIONAL,Client,CENTRE MULTIMARCHANDISES,76800,ST ETIENNE DU ROUVRAY,,,80
12749,AXIMUM PRODUITS DE MARQUAGE,Client,5 RUE DU QUAI DU DEBARQUE,76100,ROUEN,,,80
14534,ZIEGLER,Client,PORT DE ROUEN,76530,GRAND COURONNE,,,80
12487,BATIKA,Client,16 QUAI GUSTAVE FLAUBERT,76380,CANTELEU,,,80
11406,3937 SOTTEVILLE MI VOIE,Client,POINT P,76304,SOTTEVILLE-LES-ROUEN,,,80
11716,TARANIS DU ROUVRAY,Client,SITE PAPETRIE EUROPAC,76800,ST ETIENNE DU ROUVRAY,,,80
14492,INSA,Client,685 Avenue de l universit,76800,ST ETIENNE DU ROUVRAY,,,80
3891,CNRS 6614 - CORIA,Client,SITE UNIVERSIT.MADRILLET,76801,ST ETIENNE DU ROUVRAY CDX,,,80
14256,GRILLE PROTEC,Client,44 RUE DE LA VOUTE,76650,PETIT COURONNE,,,80
15172,SNDP,Client,1 RUE DE LA PAPETERIE,76530,GRAND COURONNE,,,80
162,REXEL CENO,Client,33 BLD LENINE ZI,76305,SOTTEVILLE LES ROUEN CDX,,,80
13757,CAFE FOLLIET,Client,9 RUE AMABLE LOZAI,76140,LE PETIT QUEVILLY,,,80
7187,TOUFLET TRADITION,Client,2 RUE CHAMP DES BRUYERES,76800,ST ETIENNE DU ROUVRAY,,,80
11896,INTERMARCHE SA ALMA,Client,23 RUE DE LA MARE DU PARC,76100,ROUEN,,,80
12162,BLET SUD,Client,CENTRE COMMERCIAL DU BOIS,76120,LE GRAND QUEVILLY,,,80
13534,SD SABLAGE,Client,Rue de l �tang Delpech,76800,ST ETIENNE DU ROUVRAY,,,80
13751,BATIMENT COURONNAIS,Client,510 RUE HYACINTHE MENAGE,76300,SOTTEVILLE LES ROUEN,,,80
13696,JEAN HALLEY TRANSPORTS,Client,ZAC DES ONDELLES,76240,BELBEUF,,,80
1667,NORMANDIE ACCESSOIRES,Client,"132, RUE DE CONSTANTINE",76000,ROUEN,,,80
15208,DS SMITH PAPER ROUEN,Client,PRODUCTION M5,76808,ST ETIENNE DU ROUVRAY CDX,,,80
11586,SNDD,Client,2 RUE DE LA COOPERATIVE,76125,LE GRAND QUEVILLY CEDEX,,,80
8053,PERRIER NORMANDIE,Client,RUE MICHEL POULMARCH,76800,ST ETIENNE DU ROUVRAY,,,80
10228,ECHELLES 76,Client,75 RUE DU DOCTEUR COTORI,76800,ST ETIENNE DU ROUVRAY,,,80
14212,DEMECO,Client,7 AVENUE DU GENERAL LECLE,76530,GRAND COURONNE,,,80
1152,NL LOGISTIQUE,Client,RUE DE MADAGASCAR,76173,ROUEN CEDEX 1,,,80
2835,ECIB,Client,RUE JOLIOT CURIE,76650,PETIT COURONNE,,,80
14638,ADEQUATION SECURITE,Client,71 RUE JACQUARD,76140,LE PETIT QUEVILLY,,,80
14500,BALZAC,Client,3 AVENUE EMILE BASLY,76120,LE GRAND QUEVILLY,,,80
4463,SECOURS POPULAIRE,Client,"17, TER RUE LOUIS POTERAT",76100,ROUEN,,,80
14548,AIMS TELECOM,Client,ROUTE DES DOCKS,76120,LE GRAND QUEVILLY,,,80
14248,SCI LA FILATURE,Client,31 rue de sotteville,76100,ROUEN,,,80
10513,BRETEAULT NORMANDIE-API,Client,63 BLD CHARLES DE GAULLE,76140,LE PETIT QUEVILLY,,,80
830,NIORT FRERES POIDS LOURDS,Client,RUE DE L ETANG DELPECH,76800,ST ETIENNE DU ROUVRAY,,,80
11585,DERET TRANSPORTEUR,Client,184 QUAI BAS JACQUES ANQU,76000,ROUEN,,,80
9390,HAREVA,Client,44 BLD STANISLAS GIRARDIN,76140,LE PETIT QUEVILLY,,,80
2001,COULEURS DE TOLLENS AGORA,Client,"180, AV. DU MT RIBOUDET",76177,ROUEN CEDEX,,,80
10236,KAEFER WANNER,Client,RUE DE L INDUSTRIE,76530,GRAND COURONNE,,,80
10864,VILLE DE ROUEN,Client,ATELIERS MUNICIPAUX,76100,ROUEN,,,80
10115,SFIC,Client,ROUEN AGENCE AG1151,76800,ST ETIENNE DU ROUVRAY,,,80
13337,NORMANDIE ACCESSOIRES,Client,8 RUE MONGOLFIER,76120,LE GRAND QUEVILLY,,,80
8661,CLINIQUE SAINT HILAIRE,Client,2 PLACE ST HILAIRE,76000,ROUEN,,,80
12206,DELICES PRIMEURS,Client,98 AVENUE JEAN JAURES,76140,LE PETIT QUEVILLY,,,80
81,OREXAD,Client,26 RUE DE LA GRANDE EPINE,76800,ST ETIENNE DU ROUVRAY,,,80
14535,BZ SERVICES,Client,QUAI DE PETIT COURONNE,76650,PETIT COURONNE,,,80
12908,NOLLET ELECTRICITE,Client,BVD INDUSTRIELLE,76800,ST ETIENNE DU ROUVRAY,,,80
8002,MAHLOC,Client,3 AV.VICTOR GRIGNARD,76123,GRAND QUEVILLY CEDEX,,,80
9265,DERET TRANSPORTEUR,Client,5 QUAI DU DANEMARK,76380,DIEPPEDALLE CROISSET,,,80
5468,CEDEO,Client,PARC ST GILLES,76000,ROUEN,,,80
14899,CNP OISSEL,Client,5 RUE ANTOINE DE LAVOISIE,76120,LE GRAND QUEVILLY,,,80
7063,ARNO NORMANDIE,Client,72 RUE DE LESSARD,76100,ROUEN,,,80
13840,FLA,Client,1 RUE CLAUDE CHAPPE,76300,SOTTEVILLE LES ROUEN,,,80
12781,PARAMAT AGENCE SOTTEVILLE,Client,7 RUE DES JARDINIERS,76000,ROUEN,,,80
5097,POULLAIN,Client,"73, RUE ROUGET DE LISLE",76140,LE PETIT QUEVILLY,,,80
12028,CITADIS,Client,RUE HENRI GADEAU DE KERVI,76176,ROUEN CEDEX,,,80
14776,CANAILLES PELUCHES,Client,24 RUE MASSON,76350,OISSEL,,,80
7514,SAS RENAULT CLEON,Client,BP 105,76410,CLEON,,,80
4627,MARCK CHEZ TTOM,Client,BLD DE L ILE AUX OISEAUX,76530,GRAND COURONNE,,,80
232,DSM,Client,34 BOULEVARD DU MIDI,76173,ROUEN CEDEX 1,,,80
2880,CHIELVR,Client,D.S.T.H.,76503,ELBEUF CEDEX,,,80
10310,MEUBLES IKEA FRANCE,Client,IKEA MAGASIN ROUEN N�163,76410,TOURVILLE LA RIVIERE,,,80
12629,LE CLOS AUX ANTES PRIMEURS,Client,Zone Artisanale Clos aux,76410,TOURVILLE LA RIVIERE,,,80
6579,PVG FRANCE,Client,"4,RUE JEAN SIBELIUS",76410,SOTTEVILLE SOUS LE VAL,,,80
12266,1�re NRJ,Client,247 RUE FELIX FAURE,76320,CAUDEBEC LES ELBEUF,,,80
14526,LE CERCLE DES PIERRES,Client,59 RUE DE LA PAIX,76410,ST AUBIN LES ELBEUF,,,80
90,BELLANGER,Client,"228, RUE DES HAUTS VENTS",76320,ST PIERRE LES ELBEUF,,,80
8872,ENVIE 2E,Client,BOUCLES DE SEINE,76410,ST AUBIN LES ELBEUF,,,80
10573,LA VICOMTE,Client,"59, RUE DE LA PAIX",76410,ST AUBIN LES ELBEUF,,,80
2882,ALAN JULIEN,Client,"1091, RUE DE LA VILLETTE",76320,ST PIERRE LES ELBEUF,,,80
11337,MARCHE FRAIS -BOUCHERIE,Client,ZA DU CLOS AUX ANTES,76410,TOURVILLE-LA-RIVIERE,,,80
723,MAG MAT,Client,CARREFOUR MAISON BRULEE,76530,LA BOUILLE,,,80
11556,BROSSETTE ELBEUF,Client,247 RUE FELIX FAURE,76320,CAUDEBEC LES ELBEUF,,,80
2082,ALGECO,Client,ZI DU MOULIN,76410,CLEON,,,80
12723,LA FOIR FOUILLE,Client,zone Artisanale Clos des,76410,TOURVILLE LA RIVIERE,,,80
222,HOLDYS,Client,ZI,76192,YVETOT CEDEX,,,80
367,DUGRAND,Client,"273, BLD JULES DURAND",76071,LE HAVRE CEDEX,,,80
15180,IPODEC CHEZ CHEVRON,Client,Usine de Gronfreville l O,76600,LE HAVRE,,,80
15181,IPODEC CHEZ CIM,Client,Terre Plein Sud,76600,LE HAVRE,,,80
2597,SOFOP  TALIAPLAST,Client,Chemin du parc,76400,COLLEVILLE,,,80
298,GROUPE HOSPITALIER DU HAVRE,Client,DIRECTION DES ACHATS DE L,76290,MONTIVILLIERS,,,80
14814,LOGEOS,Client,ROUTE DES BLEUETS,76430,ETAINHUS,,,80
2622,VILLE DU HAVRE,Client,B.P. 51,76084,LE HAVRE CEDEX,,,80
15292,OUEST ACRO NORMANDIE,Client,5 rue GUSTAVE SERRURIER,76620,LE HAVRE,,,80
12699,HOTEL DE VILLE D YVETOT,Client,SERVICE COMPTA,76190,YVETOT,,,80
9459,TMT,Client,21 RUE VINCENT VAN GOGH,76290,MONTIVILLIERS,,,80
196,EIC BAZELLE,Client,6 RUE DE LA PLAINE,76700,GONFREVILLE L ORCHER,,,80
15631,DISTRIDEAUVILLE GD,Client,LEADER PRICE GODERVILLE,76110,GODERVILLE MAGASIN FERME,,,80
1475,LAVENU TRANSPORTS,Client,"67, RUE SAINT BENOIST",76400,FECAMP,,,80
15276,BL MACONNERIE,Client,245 ROUTE DE VERSAILLES,76110,GRAINVILLE YMAUVILLE,,,80
13705,TETRIS,Client,FORT DE TOURNEVILLE,76620,LE HAVRE,,,80
4662,LANDRIN,Client,HORTICULTEUR,76110,HOUQUETOT,,,80
9450,OLVEA FISH OILS,Client,PARC D ACTIVITES DES HAUT,76400,ST LEONARD,,,80
2722,ARTS ET CONSTRUCTION,Client,FRANQUEVILLE,76400,CONTREMOULINS,,,80
15214,CTL LES ATELIERS DE BREAU,Client,ZA LA FLACQUAIRE,76110,BREAUTE,,,80
8003,ATS,Client,PARC DE L ESTUAIRE,76700,HARFLEUR,,,80
10411,FINODEV OCEANE,Client,LECLERC DRIVE,76700,GONFREVILLE L ORCHER,,,80
13041,OCEANE STADIUM,Client,BD LENINGRAD,76600,LE HAVRE,,,80
11856,ESTUAIRE ELECTRICITE,Client,6 AVENUE MARCEL LE MIGNOT,76700,GONFREVILLE L ORCHER,,,80
13645,VEHI GLACE,Client,22 RUE DU CAPUCHET,76620,LE HAVRE,,,80
10875,DUFRENNE MENUISERIE,Client,6 RUE RAOUL DUFY,76290,MONTIVILLIERS,,,80
11313,KING JOUET,Client,ZAC DE L ESTUAIRE,76700,GONFREVILLE-L ORCHER,,,80
15587,ALL SERVICES,Client,10 BIS RUE DES PRES,76110,GODERVILLE,,,80
12175,GIFI,Client,GONFREVILLE L  ORCHER ZON,76700,GONFREVILLE L ORCHER,,,80
13871,TRANSPORT LELOUP,Client,3675 QUAI DE GIRONDE,76600,LE HAVRE,,,80
170,EFS,Client,"609,CHEMIN DE LA BRETEQUE",76235,BOISGUILLAUME CEDEX,,,80
4738,ECM,Client,Z.I. DES PEUPLIERS,76530,GRAND COURONNE,,,80
14904,SEYRIS,Client,8 QUAI Georges Raverat,76600,LE HAVRE,,,80
6455,TRANSPORTS ROBERT ET FILS,Client,"90,RUE DE L OISEAU BLEU",76490,ST WANDRILLE RANCON,,,80
11741,ECN CHEZ FLEXI FRANCE,Client,RUE JEAN HURE,76580,LE TRAIT,,,80
975,NORMANDY AERO SPARES,Client,1 AVENUE DU LATHAM 47,76490,CAUDEBEC EN CAUX,,,80
13334,REICHHART CHEZ SANDOUVILLE,Client,SITE RENAULT SANDOUVILLE,76430,SANDOUVILLE,,,80
4761,SYNTHOMER SPECIALITY CHEMICALS,Client,SERVICE FACTURATION,76080,LE HAVRE CEDEX,,,80
11643,TOTALENERGIES RAFFINAGE FRANCE,Client,BP 98,76700,HARFLEUR,,,80
7838,TRANSPORTS ARMAND,Client,BP 5078,76071,LE HAVRE CEDEX,,,80
10719,DERICHEBOURG CHEZ RENAULT,Client,SANDOUVILLE,76054,LE HAVRE,,,80
12930,ITCM CHEZ RENAULT SANDOUVILLE,Client,0,76430,SANDOUVILLE,,,80
13699,ALTRAD ENDEL,Client,PORT JEROME,76170,LILLEBONNE,,,80
15446,NORMANDY EXPRESS,Client,6502 VOIE DES BARGES ROUS,76430,SANDOUVILLE,,,80
14505,EASY LOGISTIQUE,Client,PLPN,76430,ST VIGOR D YMONVILLE,,,80
9755,SEINE PLASTIQUE,Client,ENCEINTE EXXON MOBIL CHEM,76170,LILLEBONNE,,,80
8463,DU VAIS,Client,1 RUE DU VAIS,76450,CANOUVILLE,,,80
15163,1001 CONCEPTS,Client,Ferme du Bois Jouan,76210,NOINTOT,,,80
11581,AMN,Client,ZI DE LA GRANDE CAMPAGNE,76330,NOTRE DAME DE GRAVENCHON,,,80
7610,FORLUMEN RESEAUX,Client,ZAC DE ST JEAN DE LA NEUV,76210,ST JEAN DE LA NEUVILLE,,,80
12271,ALFRAN,Client,28 BD MARECHAL DE LATTRE,76170,LILLEBONNE,,,80
7350,TRANSPORTS DCP,Client,HAUTES FALAISES,76110,BRETTEVILLE DU GRAND CAUX,,,80
4180,DISTRIDIAM,Client,330 ROUTE DE GODERVILLE,76430,ST ROMAIN DE COLBOSC,,,80
6157,PONTICELLI FRERES,Client,B.P. 30,76330,NOTRE DAME DE GRAVENCHON,,,80
320,CARREFOUR HYPERMARCHES,Client,CENTRE  COMMERCIAL,76210,GRUCHET LE VALASSE,,,80
744,ESSO RAFFINAGE,Client,PAIEMENTS FOURNISSEURS,76330,N.D. DE GRAVENCHON,,,80
7635,GRUCHET MAGASIN NOZ,Client,RTE DE LILLEBONNE,76210,GRUCHET LE VALASSE,,,80
13369,GIFI,Client,RUE DE L  ABBAYE RD 173,76210,GRUCHET LE VALASSE,,,80
13003,SARL QUINTIN,Client,RUE DU MOUCHY,76133,MANEGLISE,,,80
2401,CAMUSET PLASTIQUE,Client,"6, BIS RUE FERME SORAN",76170,AUBERVILLE LA CAMPAGNE,,,80
13853,SUPER U,Client,82 Avenue du G�n�ral Faid,80300,ALBERT,,,80
4982,EUROLASER,Client,7 RUE RICHARD LENOIR,80220,GAMACHES,,,80
10870,BOREALIS CHIMIE,Client,30 RUE DE L INDUSTRIE,76121,GRAND QUEVILLY CEDEX,,,80
11594,IPODEC NORMANDIE,Client,1674 BOULEVARD DAMBOURNEY,76350,OISSEL,,,80
14245,ACIALU MENUISERIES,Client,1290 ROUTE DE DIEPPE,76230,ISNEAUVILLE,,,80
1960,LECUREUR,Client,CENTRE SENTE QUENNEPORT,76380,DIEPPEDALLE CROISSET,,,80
9944,SCEA BLONDEL,Client,2180 ROUTE DU CHATEAU D E,76110,BRETEVILLE DU GRAND CAUX,,,80
14921,PLOMBERIE SERVICES 76,Client,5 Zac de la Maison Blanch,76370,GREGES,,,80
13998,PARIS NORMANDIE,Client,97 BLD DE L EUROPE,76174,ROUEN CEDEX,,,80
6648,LA GARENNE,Client,FERME DE LA GARENNE,76430,SAINNEVILLE SUR SEINE,,,80
11979,OCEADIS,Client,ROUTE DU FOND HALLOT,76190,VALLIQUERVILLE,,,80
10522,LOGIPLASTIQUE RADICATEL,Client,0,76170,ST JEAN DE FOLLEVILLE,,,80
13955,AER AVION,Client,7 CHEMIN DE LA VOUTE,76120,LE GRAND QUEVILLY,,,80
11274,GENIE FLEXION,Client,7 CHEMIN DE LA VOUTE,76140,LE PETIT QUEVILLY,,,80
1163,SECOMI,Client,ZONE INDUSTRIELLE,76340,BLANGY SUR BRESLE,,,80
11530,L AGENCE DE PROD,Client,169 RUE DU BOCAGE,76720,AUFFAY,,,80
10144,TEXBAKOO,Client,LES AUBAINES,76100,ROUEN,,,80
11060,ASTURIENNE,Client,427 RUE DES CHANTIERS,76600,LE HAVRE,,,80
10715,MEDIAPOST,Client,1 RUE DE L INDUSTRIE,76380,CANTELEU,,,80
6756,AUCHAN SUPERMARCHE,Client,ROUTE NEUVE,76220,FERRIERES EN BRAY,,,80
7138,ESSO RAFFINAGE SAF,Client,CENTRE PAYEUR PJG,76330,N.D. DE GRAVENCHON,,,80
2811,SDIS SEINE MARITIME,Client,BP 78,76192,YVETOT CEDEX,,,80
7671,BOULEY SEDIN,Client,2 RUE GAY LUSSAC,76150,LA VAUPALIERE,,,80
13020,POINT P - SONEN,Client,41 RUE DE TOURVILLE,76600,LE HAVRE,,,80
14063,REGIE DIEPPOISE DES ACTIVITES,Client,PORTUAIRES,76201,DIEPPE CEDEX,,,80
7143,MANULOC L2M,Client,ZI DE LA POUDRERIE,76350,OISSEL,,,80
13261,HETTIER ROBERT,Client,QUAI DE MOSELLE,76071,LE HAVRE CEDEX,,,80
14570,CHAMPIS EN SEINE,Client,11 IMPASSE CITE BARON,76960,NOTRE DAME DE BONDEVILLE,,,80
6182,COCAGNE,Client,PARC D ACTIVITES DU,76690,LA RUE ST PIERRE,,,80
12372,FONTAINE,Client,2 BLD VICTOR HUGO,76390,AUMALE,,,80
13925,ONET CHEZ JOHN CRANE,Client,114 RUE JULES FERRY,76250,DEVILLE LES ROUEN,,,80
11998,CHASTAGNER LOCATION,Client,37 RUE DESIRE,76800,ST ETIENNE DU ROUVRAY,,,80
9409,DOCKERS DE NORMANDIE,Client,32 RUE DE COLMAR,76056,LE HAVRE CEDEX,,,80
12819,ANTALVERT,Client,8 ROUTE DE ROUEN,76270,QUIEVRECOURT,,,80
9595,LES SEPT CLOCHERS,Client,85 RUE DE LA MAIRIE,76640,BERMONVILLE,,,80
14030,LEADER PRICE,Client,RUE JEHAN LE PROVREMOYNE,76240,LE MESNIL ESNARD,,,80
12901,TOP ATLANTIQUE YBERT,Client,Rue Michel POULMARCH,76800,ST ETIENNE DU ROUVRAY,,,80
15526,STOCK DISCOUNT DEVILLE,Client,560 ROUTE DE DIEPPE,76250,DEVILLE LES ROUEN,,,80
6639,NORMA FROID,Client,P.A. DU MESNIL ROUX,76360,BARENTIN,,,80
14836,BOUAZIZ MOULOUD,Client,15 RUE BLANCHE DE CASTILL,76130,MONT ST AIGNAN,,,80
11676,MAIRIE,Client,BP 219,76196,YVETOT CEDEX,,,80
10446,SOPROTEC,Client,PARC D ACTIVITES DE LA BR,76230,BOIS GUILLAUME,,,80
10197,SARL TURENNE,Client,CARREFOUR MARKET,76600,LE HAVRE,,,80
12428,CRAQUELIN PAULE,Client,859 route du bois Carré,76640,BENNETOT,,,80
12246,KANGOUROU,Client,4 RUE MAIRIE JEAN ANTOINE,76300,SOTTEVILLE LES ROUEN,,,80
14834,TALAH FARID,Client,148 RUE DE GESSARD,76100,ROUEN,,,80
13416,FROMAGERIE PAYS DE BRAY,Client,RUE SAINTE RADEGONDE,76270,NEUFCHATEL EN BRAY,,,80
12298,MASUREL POLLET CARTONNAGE,Client,ZONE INDUSTRIELLE,76440,FORGES LES EAUX,,,80
14219,CNP MONT SAINT AIGNAN,Client,5 RUE ANTOINE DE LAVOISIE,76120,LE GRAND QUEVILLY,,,80
9986,FREM,Client,RUE MARCONI,76150,MAROMME,,,80
15087,SKAGEN SSB,Client,154 RUE VICTOR HUGO,76600,LE HAVRE,,,80
12575,SOROMECA,Client,1000 ROUTE DE LA CHAPELLE,76430,ST ROMAIN DE COLBOSC,,,80
14425,FRIGO TRANSPORTS 76,Client,QUAI GALLIANI,76200,DIEPPE,,,80
7839,TOUAX SOLUTIONS MODULAIRES,Client,ZA DU MOULIN,76410,CLEON,,,80
12474,TECHNICONTROL PL,Client,BASSIN SAINT GERVAIS,76042,ROUEN CEDEX,,,80
12017,GRANITS & MATERIAUX,Client,73 A RUE DU GAL DE GAULLE,76770,LE HOULME,,,80
14347,NOLLET DIEPPE,Client,ZI LOUIS DELAPORTE,76370,ROUXMESNIL BOUTEILLES,,,80
13539,AGASSE FRERES,Client,RUE MONSEIGNEUR LEMONNIER,76480,ANNEVILLE AMBOURVILLE,,,80
13397,SNMS VINCI FACILITIES,Client,225 RUE DU NOYER DES BOUT,76800,ST ETIENNE DU ROUVRAY,,,80
13884,GRESSENT MEDICAL,Client,7 ROUTE DU HAVRE,76890,TOTES,,,80
13628,KHIAR M TRANSPORT,Client,12 RUE DES LONGUES MARES,76520,ST AUBIN CELLOVILLE,,,80
5076,RENAULT,Client,CKD GRAND-COURONNE,78084,YVELINES CEDEX 09,,,80
7361,BARRY CALLEBAUT,Client,MANUFACTURING FRANCE,78250,MEULAN HARDRICOURT,,,80
133,BARRY CALLEBAUT FRANCE,Client,"5, BLD MICHELET",78250,MEULAN,,,80
7943,GDE LIMAY,Client,AV DREYFUS DUCAS,78520,LIMAY,,,80
12803,ALIZE WHITE PANAMA,Client,52. Rue des fontenelles,78920,ECQUEVILLY,,,80
7852,AUTONEUM FRANCE SASU,Client,ZAC DES CHEVRIES,78416,AUBERGENVILLE CEDEX,,,80
11351,FEDEX CHEZ FENWICK LINDE,Client,DIRECTION OPERATION CENTR,78854,ELANCOURT,,,80
15447,MEDEXENO,Client,38 BLD PAUL CEZANNE,78280,GUYANCOURT,,,80
9973,LES ENTREPOTS MODERNES,Client,5 Rue du Vieux Ch�ne,78980,BREVAL,,,80
12569,ITP,Client,11 QUAI CONTI,78430,LOUVECIENNES,,,80
14282,KFS LOGISTICS,Client,32 RUE D AIGREMONT,78300,POISSY,,,80
10894,GENERALE DE MAINTENANCE,Client,ACTEMIUM,78140,VELIZY VILLACOUBLAY,,,80
6278,ARTEGY,Client,CF 30290,78180,MONTIGNY LE BRETONNEUX,,,80
8693,BARRY CALLEBAUT MANUFACTURING,Client,5 BLD MICHELET,78250,HARDRICOURT,,,80
1364,LE JOINT FRANCAIS SNC,Client,SITE DE GAMACHES,80220,GAMACHES,,,80
1889,PARICHE GERARD,Client,0,80220,BOUILLANCOURT EN SERY,,,80
5110,MILLANCOURT ET NICOLAS,Client,49 RUE DE NORMANDIE,80220,GAMACHES,,,80
4975,SOMMALEV,Client,PARC ACTIVITE DE GROS JAC,80880,ST QUENTIN LA MOTTE,,,80
12384,MATERIAUX PICARDS,Client,(SEE MILLANCOURT),80500,MONTDIDIER,,,80
2269,MEGA VERRE PHARMACIE,Client,ROUTE NATIONALE,80880,ST QUENTIN LA MOTTE,,,80
12273,MILLANCOURT ET NICOLAS,Client,LE COQ GAULOIS,80590,MORVILLERS ST SATURNIN,,,80
6851,VALENTIN,Client,4 ZAC DU MOULIN,80210,FEUQUIERES EN VIMEU,,,80
14775,ALKERN,Client,RUE DAIRE,80290,GAUVILLE,,,80
481,GALVAMETAL,Client,"20, RUE CH. DE GAULLE",80570,EMBREVILLE,,,80
12439,YVON ET FILS (BDN),Client,GRANDE RUE,80770,BEAUCHAMPS,,,80
5338,PGS PICARDIE,Client,ZA LA MORTIGNETTE,80260,VILLERS BOCAGE,,,80
12275,MILLANCOURT ET NICOLAS,Client,Avenue Francois Mitterran,80140,OISEMONT,,,80
466,FCP,Client,"32, RUE JEAN MOULIN",80430,LIOMER,,,80
12475,MATERIAUX PICARDS,Client,(SEE MILLANCOURT),80800,VILLERS BRETONNEUX,,,80
12274,MILLANCOURT ET NICOLAS,Client,"5, rue du 8 mai 1945",80130,FRIVILLE ESCARBOTIN,,,80
887,PICOURT PACKAGING,Client,"6, RUE DE CITERNES",80490,FRUCOURT,,,80
10304,PR OCIDO,Client,3 ALLEE DES MARETTES,80130,FRIVILLE ESCARBOTIN,,,80
4231,PLASTIQUE SERVICE PLUS,Client,ZONE D ACTIVITES,80770,BEAUCHAMPS,,,80
1526,GRANDSIRE FRIVILLE,Client,"84,RUE ISAIE SELLIER",80130,FRIVILLE ESCARBOTIN,,,80
12315,CALIPSO (SIEGE),Client,"86, BOULEVARD DE LA REPUB",80101,ABBEVILLE,,,80
12021,SICAP (GAMM VERT),Client,22 BOULEVARD MICHEL STROG,80440,BOVES,,,80
10524,POILLY METALLERIE,Client,6 RUE DU PUITS,80220,BOUILLANCOURT EN SERY,,,80
885,PICARDIE PALETTES,Client,"Z.I. 2, RUE GRAND-SELVE",80220,GAMACHES,,,80
13571,NORAUTO,Client,Centre Commercial Auchan,80350,MERS LES BAINS,,,80
14291,VANDEVELDE,Client,26 RUE BASSE,80430,INVAL BOIRON,,,80
15173,M.A.I ENGINEERING,Client,ZA VALLEE MAZIN,80220,BOUTTENCOURT,,,80
12927,GAMM VERT,Client,ROUTE D AMIENS,60120,BRETEUIL,,,80
14856,CAP ENERGIE APVB,Client,508 RUE DE LA MOTTE,80880,ST QUENTIN LA MOTTE CROIX,,,80
13066,GAMM VERT VILLAGE,Client,VAL NIEVRE,80420,FLIXECOURT,,,80
12926,GAMM VERT,Client,ROUTE DE THENNES,80110,MOREUIL,,,80
11808,U EXPRESS,Client,RUE JEAN JAURES,80470,AILLY SUR SOMME,,,80
14027,LEADER PRICE,Client,RUE DE LA GRENOUILLERE,80290,POIX DE PICARDIE,,,80
14041,LEADER PRICE,Client,ROUTE DE VILLE LE MARCLET,80420,FLIXECOURT,,,80
13526,EQUIPEMENT A PARTAGER,Client,60 RUE DE LA VALLEE,80000,AMIENS,,,80
10439,COMLEV,Client,RUE MAURICE THOREZ,80470,ST SAUVEUR,,,80
7201,SPIE INDUSTRIE,Client,COMPTABILITE FOURNISSEUR,35093,RENNES CEDEX 9,,,80
2787,RELAIS VIVIER JJ,Client,34 RUE JEAN MOULINS,80430,LIOMER,,,80
14069,ATS INTERNATIONAL,Client,MULTIPARC DU THILLAY,95500,LE THILLAY,,,80
9259,MRC GLOBAL,Client,21 23 RUE DU PETIT ALBI,95000,CERGY,,,80
11511,SM RENTAL,Client,CARGO 2 BAT 3700,95708,ROISSY CDG CEDEX,,,80
11345,PROPHOT,Client,7 RUE JOSEPH JACQUARD,95691,GOUSSAINVILLE,,,80
5954,HOPPECKE,Client,"Centre d Affaires ""Le Ché",60520,LA CHAPELLE EN SERVAL,,,80
7703,DISTRI PLUS 66,Client,RUE DE BIRHAKEM,76200,DIEPPE,,,80
15078,SELINGUE,Client,Avenue de l europe,76630,PETIT CAUX,,,80
13877,CENTRAKOR SIMONELLA,Client,49 RUE DE LA DIVISION LECLERC,50300,AVRANCHES,,,80
1934,ALLOT MATERIAUX,Client,HAMEAU LE GRUCHET,27600,AILLY,,,80
3212,BOUVET,Client,15-17 RUE CHARLES SAURIA,14123,IFS,,,80
